PK;NOMBRE;DESCRIPCION-ENTIDAD;HORARIO;EQUIPAMIENTO;TRANSPORTE;DESCRIPCION;ACCESIBILIDAD;CONTENT-URL;NOMBRE-VIA;CLASE-VIAL;TIPO-NUM;NUM;PLANTA;PUERTA;ESCALERAS;ORIENTACION;LOCALIDAD;PROVINCIA;CODIGO-POSTAL;BARRIO;DISTRITO;COORDENADA-X;COORDENADA-Y;LATITUD;LONGITUD;TELEFONO;FAX;EMAIL;TIPO;
2071;"Arte Pblico (Museo al Aire Libre de la Castellana)";"";"";"";" Metro: Rubn Daro (lnea 5)  Bus: 5, 14, 27, 45, 150 ";"";"1";"http://www.madrid.es/vgn-ext-templating/v/index.jsp?vgnextchannel=9e4c43db40317010VgnVCM100000dc0ca8c0RCRD&vgnextoid=eca9ef4d7f71c010VgnVCM1000000b205a0aRCRD";"CASTELLANA";"PASEO";"V";"40";"";"";"";"";"MADRID";"MADRID";"28046";"CASTELLANA";"SALAMANCA";"441788";"4476277";"40.433219398671156";"-3.6876122680805956";"917 011 863  / 915 782 722 (informacin en Museo de Historia)";"";"smuseosm@madrid.es";"/contenido/entidadesYorganismos/MonumentosEdificiosArtisticos"; 
4949641;"Casa - Museo del Ratoncito Prez";" La residencia de la familia Prez est  situada en los stanos de la confitera Prasi,  en el nmero ocho de la calle del Arenal, segn cita Luis Coloma. ";"  Lunes  de 17 a 20 horas.  De martes a viernes de 11 a 14 horas y de 17 a 20 horas.  Sbados de 11 a 15 horas y de 16 a 20 horas (horario orientativo, consultar disponiblidad en la  web del Museo ).  Domingos y festivos de 12 a 18 horas.  ";"";" Metro: Sol (lneas: 1, 2 y 3)  Bus: 3, 50 ";" Venta de entradas directamente en el Museo   Recomendado a partir de los 5 aos  Se recomienda sacar la entrada con antelacin pues el aforo es limitado. ";"0";"http://www.madrid.es/vgn-ext-templating/v/index.jsp?vgnextchannel=9e4c43db40317010VgnVCM100000dc0ca8c0RCRD&vgnextoid=990950e86d4ca110VgnVCM2000000c205a0aRCRD";"ARENAL";"CALLE";"V";"8";"1";"Local 15 - 16";"";"";"MADRID";"MADRID";"28013";"SOL";"CENTRO";"440254";"4474494";"40.41704834412296";"-3.7055288844865233";"915 226 968";"";"";"/contenido/entidadesYorganismos/Museos"; 
4847190;"Casa Museo Lope de Vega";"";" Para la visita es  imprescindible reserva anticipada  en:  casamuseolopedevega@madrid.org  o en el telfono: 914 299 216, en horario del museo   De martes a domingo de 10 a 15 horas. ltima visita a las 14 horas.  Cerrado los lunes, das 1 y 6 de enero, 5 de abril, 1 de mayo y 24, 25 y 31 de diciembre y dos festivos locales.  Este horario puede sufrir alteraciones por actividades extraordinarias que se celebran en este espacio. ";"";" Metro: Antn Martn (lnea 1)   Bus: 6, 9, 10, 14, 26, 27, 32, 34, 37, 45, 57 ";" La visita se realiza en grupos de un mximo de 10 personas acompaados por un gua. Comienzan cada media hora y tienen una duracin aproximada de 45 minutos (ltima visita a las 14 horas).   Idiomas: espaol, ingls y francs. ";"0";"http://www.madrid.es/vgn-ext-templating/v/index.jsp?vgnextchannel=9e4c43db40317010VgnVCM100000dc0ca8c0RCRD&vgnextoid=4eff8c46145e8110VgnVCM2000000c205a0aRCRD";"CERVANTES";"CALLE";"V";"11";"";"";"";"";"MADRID";"MADRID";"28014";"CORTES";"CENTRO";"440935";"4474190";"40.414358466555235";"-3.6974741545860015";"914 299 216";"914 292 601";"casamuseolopedevega@madrid.org";"/contenido/entidadesYorganismos/Museos"; 
5682031;"Castillo de la Alameda";"El edificio est incorporado al sistema &quot;museosdemadrid&quot; donde se realizan talleres para escolares y actividades en verano.";"  De abril a septiembre: sbados, domingos y festivos de 10 a 21 horas  De octubre a marzo: sbados, domingos y festivos de 10 a 18 horas  Cerrado los das 1 de enero, 1 de mayo y 25 de diciembre  ";"  Accesibilidad    Rampas de acceso  Servicios para minusvlidos  Informacin en Braille para invidentes  ";" Metro: Alameda de Osuna (lnea 5), El Capricho (lnea 5)  Autobuses: 101, 105, 112, 114, 115 y 151 ";"  Descripcin monumental   El monumento est clasificado como singular por el  PGOUM . Es uno de los escasos vestigios de la arquitectura militar del pasado siglo  XV , y uno de los pocos castillos que ha sobrevivido al paso del tiempo y resurge ahora, tras un minucioso proceso de restauracin y conversin en Museo.  El lugar en el que se alza el Castillo de la Alameda o de Barajas, es un espacio donde estn representadas todas las etapas de la historia de este territorio, situado entre Madrid y el valle del Jarama. Bajo l y su entorno, existen restos de asentamientos antiguos desde la Edad del Bronce hasta la poca Romana.  Entre las aldeas medievales de la Alameda y Barajas, dentro del alfoz de Madrid, se construy, en el siglo  XV , el castillo seorial, que en el siglo  XVI , se transform en un palacio renacentista. Entre los siglos  XVI  y  XVIII , se alzan en esta zona varias villas de veraneo de la aristocracia madrilea. Entre ellas, el cercano palacete de los Duques de Osuna con su parque de El Capricho. Desde entonces, esta rea se conoce con el nombre de la Alameda de Osuna.  La Guerra Civil tambin se deja sentir en este lugar, donde estaba situado el centro de mando del general Miaja, en la retaguardia del frente del Jarama. El mando de las operaciones estaba en el bnker de El Capricho, pero el castillo se emple como fortn y a su lado existe un nido de ametralladoras.  La reciente urbanizacin del barrio ha respetado este lugar. Un parque pblico conserva dentro de l los vestigios de todas estas pocas: el poblado prehistrico, el castillo luego convertido en palacio, el cementerio y el panten y el nido de ametralladoras.  El castillo y su entorno han sido objeto de varias campaas de excavaciones arqueolgicas desde 1996, pero hasta ahora estas actuaciones no haban tenido continuidad ni haban constituido el germen de un proyecto que desembocase en la recuperacin del yacimiento. ";"0";"http://www.madrid.es/vgn-ext-templating/v/index.jsp?vgnextchannel=9e4c43db40317010VgnVCM100000dc0ca8c0RCRD&vgnextoid=fe43c4be8e688210VgnVCM1000000b205a0aRCRD";"ANTONIO SANCHA";"CALLE";"V";"1";"";"";"";"";"MADRID";"MADRID";"28042";"ALAMEDA DE OSUNA";"BARAJAS";"449807";"4479009";"40.45835460563491";"-3.5932903820278788";"913 667 415                                     
";"";"castilloalameda@madrid.es";"/contenido/entidadesYorganismos/MonumentosEdificiosArtisticos"; 
2064;"Casn del Buen Retiro";" Edificio que forma parte del Museo Nacional del Prado, donde pueden consultarse fondos de la Biblioteca, del Archivo y del Servicio de Documentacin de la coleccin del Museo y de otras fuentes relativas a la historia del arte. ";"  Maanas    De lunes a jueves, de 9 a 15 horas. (Servicio de libros y otros materiales hasta las 14:30 horas)   Viernes, de 9 a 14:30 horas. (Servicio de libros y otros materiales hasta las 14 horas)     Tardes.  Lunes y mircoles, de 15 a 18 horas. (Servicio de libros y otros materiales hasta las 17:30 horas)   Horario de verano     Desde el 16 de junio al 15 de septiembre  Lunes a viernes, de 9 a 14:30 horas   ";"";" Metro: Atocha (Lnea 1)  Bus: 19, 10, 14, 27, 34, 37, 45  Renfe: Atocha ";"  Descripcin monumental   El Casn o Saln de Baile es el nico volumen que permanece del antiguo Palacio del buen Retiro, ejecutado en 1637 con un proyecto de Alonso Carbonel. An se conserva la bveda de caon con lunetas, pintada al fresco por Lucas Jordn en 1692 con la Alegora del Toisn de Oro. Su fachada principal, a poniente, arrasada la primitiva en 1886 por un cicln, es de Velzquez Bosco. La ltima rehabilitacin ha sido realizada por Jaime Torruell.   Otras direcciones de Correo electrnico:    documentacion@museodelprado.es    archivo@museodelprado.es  ";"0";"http://www.madrid.es/vgn-ext-templating/v/index.jsp?vgnextchannel=9e4c43db40317010VgnVCM100000dc0ca8c0RCRD&vgnextoid=f0443d0b5e71c010VgnVCM1000000b205a0aRCRD";"ALFONSO XII";"CALLE";"V";"28";"";"";"";"";"MADRID";"MADRID";"28014";"LOS JERONIMOS";"RETIRO";"441635";"4474285";"40.415263749471535";"-3.689232811717636";"902 107 077";"";"biblioteca@museodelprado.es";"/contenido/entidadesYorganismos/MonumentosEdificiosArtisticos"; 
103331;"Centro Social y Cultural la Casa Encendida";" Edificio de carcter monumental. De estilo neomudjar, fue diseado por el arquitecto Fernando Arbs e inaugurado en el ao 1913. Cuenta con ms de 6.000 metros cuadrados de instalaciones divididas en 4 plantas y una azotea. ";"  De lunes a domingo de 10 a 22 horas (todos los das del ao, excepto festividades nacionales y de la Comunidad de Madrid)  Exposiciones: de 10 a 21:45 horas  ";"   Biblioteca  (consulta catlogo  http://catalogo.bibliotecas.obrasocialcajamadrid.es/ )   Sala de consulta y Hemeroteca: de lunes a domingos, de 10 a 21:15 horas  Mediateca y Sala de trabajo Ofimtica: de lunes a domingos, de 10 a 21:15 horas  Biblioteca joven: de lunes a viernes, de 10 a 20:30, sbados y domingos de 10 a 13:30  Bebeteca: sbados y domingos de 10 a 13:30 horas     Estudio multimedia : cuenta con equipos profesionales para la edicin de video con Final Cut Studio, Premiere, etc. Su uso tendr un precio de cinco a ocho euros por turno de cinco horas dependiendo del tipo de asistencia tcnica.   Laboratorio de radio:  dispone de un equipo completo de grabacin y equipamiento profesional. Su uso tendr un precio de diez euros por turnos de cinco horas.   Laboratorio fotogrfico    Tienda solidaria:  consultar horario   Cafetera:  todos los das, excepto festivos, de 10 a 21:45 horas  ";" Metro: Embajadores (lnea 3), Lavapies (lnea 3), Atocha (lnea 1)   Bus: 27, 34, 36, 41, 68, 69, 119   Renfe: Embajadores ";"";"1";"http://www.madrid.es/vgn-ext-templating/v/index.jsp?vgnextchannel=9e4c43db40317010VgnVCM100000dc0ca8c0RCRD&vgnextoid=c27f8899fc81c010VgnVCM1000000b205a0aRCRD";"VALENCIA";"RONDA";"V";"2";"";"";"";"";"MADRID";"MADRID";"28012";"EMBAJADORES";"CENTRO";"440732";"4473259";"40.40595710517701";"-3.699779793558763";"902 430 322                                 
";"915 063 876";"casaencendida@cajamadrid.es";"/contenido/entidadesYorganismos/MonumentosEdificiosArtisticos"; 
3350;"Claustro de San Jernimo el Real (Los Jernimos)";"";"";"";"Bus: 10 , 14 , 19 , 27 , 34 , 37 , 45";"";"0";"http://www.madrid.es/vgn-ext-templating/v/index.jsp?vgnextchannel=9e4c43db40317010VgnVCM100000dc0ca8c0RCRD&vgnextoid=8f947b503a71c010VgnVCM1000000b205a0aRCRD";"MORETO";"CALLE";"V";"4";"";"";"";"";"MADRID";"MADRID";"28014";"LOS JERONIMOS";"RETIRO";"441524";"4474184";"40.414346084679714";"-3.6905317543061407";"91 420 35 78&#13;
";"";"";"/contenido/entidadesYorganismos/MonumentosEdificiosArtisticos"; 
6469186;"Ermita de San Antonio de la Florida (Museo)";" Ermita dedicada a San Antonio de Padua y pequeo museo. Las pinturas murales que la decoran son de Francisco de Goya. Alberga los restos mortales del artista desde 1919. Para preservar sus pinturas, en 1929 se traslad el culto a una ermita gemela construida a su lado, dejando el edificio original como museo. ";"  De martes a domingos y festivos de 9:30 a 20 horas.   Cerrado  los lunes, incluidos festivos y das 1 de enero, 1 de mayo y 25 de diciembre.   ltimo pase de visita:  20 minutos antes del cierre (el desalojo de las salas comenzar 10 minutos antes)   Por motivos de conservacin, el aforo mximo es de 50 personas en el interior de la capilla.  Este horario y la apertura de salas pueden sufrir modificaciones, por favor, confrmelo en el telfono de informacin del museo.  ";" Tienda, en la que se pueden adquirir las guas y publicaciones sobre la ermita editadas por el Museo y otros organismos pblicos, as como catlogos y publicaciones de instituciones culturales del Ayuntamiento de Madrid. ";" Metro: Prncipe Po (lneas 5, 10 y ramal pera - Prncipe Po)  Bus: 41, 46 y 75 (Intercambiador Prncipe Po)  Renfe: Prncipe Po ";"";"0";"http://www.madrid.es/vgn-ext-templating/v/index.jsp?vgnextchannel=9e4c43db40317010VgnVCM100000dc0ca8c0RCRD&vgnextoid=75950204770e7310VgnVCM2000000c205a0aRCRD";"SAN ANTONIO DE LA FLORIDA";"GLORIETA";"V";"5";"";"";"";"";"MADRID";"MADRID";"28008";"CASA DE CAMPO";"MONCLOA-ARAVACA";"438548";"4475419";"40.425256682855846";"-3.725725718176111";"915 420 722 / 917 011 863                                                                                        
";"917 011 686";"sanantonio@madrid.es";"/contenido/entidadesYorganismos/MonumentosEdificiosArtisticos"; 
58353;"Espacio Fundacin Telefnica";"";" De martes a domingo, de 10 a 20 horas.  Cerrado al pblico todos los lunes y los festivos 25 de diciembre y das 1 y 6 de enero. ";"  Accesos y espacios habilitados para personas con movilidad reducida, aseos adaptados y con cambiador de paales, ascensor, zonas de descanso y silla de ruedas para uso en las salas.  Tabletas con gua multimedia de las exposiciones, disponibles en el mostrador de informacin.  Conexin WIFI.  ";" Metro: Gran Va (lneas 1 y 5)  Bus: 1, 2, 46, 74, 146, 202 ";"  Telfonos:    Visitas guiadas y talleres educativos: 915 225 645  Reserva de salas y eventos: 915 840 440 / 915 840 646    Correo electrnico:     Informacin general .   Visitas guiadas y talleres educativos .   Reserva de salas y eventos .   Tienda abierta de martes a domingo, de 10 a 20 horas. ";"1";"http://www.madrid.es/vgn-ext-templating/v/index.jsp?vgnextchannel=9e4c43db40317010VgnVCM100000dc0ca8c0RCRD&vgnextoid=87748ed67151c010VgnVCM2000000c205a0aRCRD";"FUENCARRAL";"CALLE";"V";"3";"";"";"";"";"MADRID";"MADRID";"28004";"UNIVERSIDAD";"CENTRO";"440590";"4474865";"40.42041458612889";"-3.7016034186955076";"915 808 700 (informacin general)";"";"";"/contenido/entidadesYorganismos/Museos"; 
6017808;"Fundacin AMYC (Arte Moderno y Contemporneo). Casa - Museo Fuente del Rey";"";" De lunes a viernes de 10 a 19 horas. Sbados y domingos cerrado.   Visitas  guiadas y concertadas con cita previa. ";" Siguiendo la iniciativa del mecenazgo de Francisco Daurella, en 2009 decide crear la Fundacin  AMYC , para la que recupera, rehabilita y acondicona una casa de uso privado para transformala en Casa - Museo. En sus instalaciones acoger diferentes salas expositivas y una sala polivalente para actos culturales. El eje principal de la coleccin de ms de 250 obras, es dar una visin muy dinmica de lo sucedido entre fianles del siglo  XIX  y mediados del siglo  XX . ";"Bus: 161, I";"";"0";"http://www.madrid.es/vgn-ext-templating/v/index.jsp?vgnextchannel=9e4c43db40317010VgnVCM100000dc0ca8c0RCRD&vgnextoid=5c1260101310f210VgnVCM1000000b205a0aRCRD";"FUENTE DEL REY";"CALLE";"V";"11";"";"";"";"";"MADRID";"MADRID";"28023";"ARAVACA";"MONCLOA-ARAVACA";"434772";"4478804";"40.45546180290319";"-3.7705836264842576";"913 579 116";"913 575 989";"info@fundacionamyc.org";"/contenido/entidadesYorganismos/FundacionesCulturales"; 
3348;"Monasterio de las Descalzas Reales";" Convento fundado por la Princesa Juana de Austria, transformando un antiguo palacio de su madre Isabel de Portugal. ";" Slo con visita guiada.    De martes a sbado de 10 a 14 horas y de 16 a 18:30 horas  Domingos y festivos, de 10 a 15 horas y tardes cerrado  Cierre de taquillas una hora antes  Cerrado: das 1, 6 de enero; Semana Santa (del 16 al 19 de abril, inclusive); 1 de mayo; 10 de noviembre; 24, 25 y 31 de diciembre de 2014  Abierto: 15 de mayo y 8 de diciembre de 2014  Abierto horario domingo: 2 de mayo; 19 de junio; 15 de agosto; 1 de noviembre y 6 de diciembre de 2014    Atencin telefnica:    De lunes a sbados de 9:30 a 17 horas  Domingos y festivos de 9 a 14 horas  ";"";" Metro: Callao (lneas 3, 5) , Santo Domingo (lnea 2) , Sol (lneas 1, 2, 3) Gran Va (lneas 1, 5)  Bus: 1, 2, 3, 5, 15, 20, 25, 39, 40, 44, 46, 50, 51, 52, 53, 74, 75, 133, 146, 147, 148, 149, 150, 202 ";"";"0";"http://www.madrid.es/vgn-ext-templating/v/index.jsp?vgnextchannel=9e4c43db40317010VgnVCM100000dc0ca8c0RCRD&vgnextoid=12e113db5b71c010VgnVCM1000000b205a0aRCRD";"DESCALZAS";"PLAZA";"V";"3";"";"";"";"";"MADRID";"MADRID";"28013";"SOL";"CENTRO";"440197";"4474626";"40.418233359889484";"-3.706213134639163";"914 548 800 (Informacin, en Palacio Real)                                       
";"915 212 779";"";"/contenido/entidadesYorganismos/MonumentosEdificiosArtisticos"; 
5873478;"Museo ABC";"Centro de arte, dibujo e ilustracin. ";"  De martes a sbado de 11 a 20 horas  Domingos de 10 a 14 horas  Festivos de 11 a 20 horas  Lunes cerrado   Visitas guiadas:  de martes a viernes (consultar horario en el telfono del museo).  ";"";" Metro: San Bernardo (lneas 2 y 4), Noviciado (lnea 2), Ventura Rodrguez (lnea 3), Plaza de Espaa (lneas 3 y 10)  Bus: M2, 3, 147 ";"";"0";"http://www.madrid.es/vgn-ext-templating/v/index.jsp?vgnextchannel=9e4c43db40317010VgnVCM100000dc0ca8c0RCRD&vgnextoid=f0103fee6537c210VgnVCM1000000b205a0aRCRD";"AMANIEL";"CALLE";"V";"29";"";"";"";"";"MADRID";"MADRID";"28015";"UNIVERSIDAD";"CENTRO";"439922";"4475646";"40.42740213531285";"-3.70955095379701";"917 588 379";"";"";"/contenido/entidadesYorganismos/Museos"; 
2067;"Museo Africano Mundo Negro";"Situado en los locales de los Misioneros de Madrid y abierto al pblico en 1985, se propone divulgar la cultura africana, promoviendo el conocimiento de la vida, de la historia y de las diversas culturas africanas. ";"   Grupos con cita previa : de lunes a sbado   Particulares  (visitas guiadas): domingos a las 11,30 horas   Cerrado : julio, agosto y septiembre  ";"";"Bus: 11, 70, 114, 122 ";"";"0";"http://www.madrid.es/vgn-ext-templating/v/index.jsp?vgnextchannel=9e4c43db40317010VgnVCM100000dc0ca8c0RCRD&vgnextoid=6ab8ef4d7f71c010VgnVCM1000000b205a0aRCRD";"ARTURO SORIA";"CALLE";"V";"101";"";"";"";"";"MADRID";"MADRID";"28043";"SAN JUAN BAUTISTA";"CIUDAD LINEAL";"444864";"4478056";"40.449455579055886";"-3.651503432956766";"914 152 412";"915 192 550";"";"/contenido/entidadesYorganismos/Museos"; 
2050;"Museo Arqueolgico Nacional";" Construdo en 1866 segn proyectos de Jareo y Alarcn y terminado por Ruiz de Salces. Ocupa el mismo edificio que la Biblioteca Nacional. De estilo neoclsico. ";" De martes a sbado de 9:30 a 20 horas. Domingo y festivos de 9:30 a 15 horas.  Cerrado todos los lunes, 1 y 6 de enero, 1 de mayo y 24, 25 y 31 de diciembre y un festivo local (15 de mayo en 2014) ";"  Sistema de bucle inductivo de audio para personas con problemas de audicin en la proyeccin audiovisual  y reas de atencin a pblico  Acceso para personas con movilidad reducida   Actividades culturales y didcticas   Visitas para grupos previa concertacin de cita   Publicaciones   Servicio fotogrfico  ";" Metro: Serrano (lnea 4), Coln (lnea 4), Velazquez (lnea 4)  Bus: 1, 2, 5, 9, 14, 15, 19, 20, 21, 27, 28, 45, 51, 52, 53, 74, 146, 150  Renfe: Recoletos ";" Los grupos de cinco o ms personas tendrn una reduccin del 50% en el precio de la entrada, previa reserva.   Grupos escolares:  La visita de los grupos escolares es gratuita. El grupo debe contar con un profesor o persona responsable por cada 20 alumnos.  La guia multimedia es un dispositivo que mejora las prestaciones de las tradiciones audioguias, trasmitiendo la informacion sobre la exposicin en diversos formatos: texto, imagen, vdeo y audio.  Ofrece un recorrido general con informac&iexcl;n en espaol, ingls y lengua de signos, as como un recorrido especfcio para personas con discapacidad visual ";"1";"http://www.madrid.es/vgn-ext-templating/v/index.jsp?vgnextchannel=9e4c43db40317010VgnVCM100000dc0ca8c0RCRD&vgnextoid=8fd8ef4d7f71c010VgnVCM1000000b205a0aRCRD";"SERRANO";"CALLE";"V";"13";"";"";"";"";"MADRID";"MADRID";"28001";"RECOLETOS";"SALAMANCA";"441708";"4475173";"40.42326842040792";"-3.6884539762461968";"915 777 912                              
                                              
";"";"sugerencias@man.es";"/contenido/entidadesYorganismos/Museos"; 
2072;"Museo Casa de la Moneda";" El Museo de la Fbrica Nacional de la Moneda y Timbre, contiene importantes colecciones numismticas, grabados, dibujos, moldes y troqueles de los siglos  XVI ,  XVII  y  XVIII , cubriendo la historia de la moneda desde el siglo  VII a.C.  hasta nuestros dias. ";" De martes a viernes ininterrumpidamente de 10 a 17:30 horas. Sbados, domingos y festivos de 10 a 14 horas.  Cerrado los lunes, y los das 1, 4 y 5 de enero; 17, 18, 19 y 20 de abril; 1 y 2 de mayo; 19 de junio; 23, 24, 25 y 31 de diciembre. ";"El pblico puede acuar una moneda durante su visita. Accesible a personas con minusvala (fsica y sensorial). Visitas guiadas e introduce la lengua de signos para personas sordas ";" Metro: O&acute;Donnell (lnea 6)  Bus: 2, 28, 30, 56, 71, 143, C, N6 ";"";"1";"http://www.madrid.es/vgn-ext-templating/v/index.jsp?vgnextchannel=9e4c43db40317010VgnVCM100000dc0ca8c0RCRD&vgnextoid=12f8ef4d7f71c010VgnVCM1000000b205a0aRCRD";"DOCTOR ESQUERDO";"CALLE";"V";"36";"";"";"";"";"MADRID";"MADRID";"28028";"GOYA";"SALAMANCA";"443345";"4475085";"40.42258896520152";"-3.6691501169061067";"915 666 544                 
";"915 666 809";"museo@fnmt.es";"/contenido/entidadesYorganismos/Museos"; 
4112;"Museo Cerralbo";" Este Palacio, construido entre 1883 y 1893, fue concebido como vivienda y como museo para sede de las obras de arte reunidas por los Marqueses de Cerralbo y sus hijos, los Marqueses de Villa Huerta, durante los numerosos viajes que realizaron por Espaa y Europa.   Objetivos y Fines de la Fundacin Cerralbo (en la misma sede)    Velar porque las colecciones no se disgreguen ni enajenen y permanezcan reunidas en su sede de Ventura Rodrguez.   Conceder premios y becas para artistas e investigadores y celebrar actos culturales.   Colaborar en la custodia, exhibicin y mejora del patrimonio que el Estado hered del Marqus, perpetuando as su memoria.   ";"  De martes a sbado de 9:30 a 15 horas  Jueves de 17 a 20 horas (apertura gratuita, excepto festivos)  Domingos y festivos de 10 a 15 horas  Lunes, cerrado  Jueves y Viernes Santo tienen el horario de los das festivos  Visitas guiadas, previa reserva, los martes y mircoles y, sin reserva, los jueves , viernes y sbados, a cargo de los voluntarios culturales de la Confederacin de Aulas de la Tercera Edad  ";"  Biblioteca  Sala de Exposiciones  Sala de Conferencias  Gabinete diettico  Gabinete de dibujo y laboratorio de restauracin  ";" Metro: Ventura Rodrguez (lnea 3), Plaza de Espaa (lneas 3 y 10)  Bus: 1, 2, 3, 25, 39, 44, 46, 74, 75, 133, 138, 148, 202, 749, C1, C2 ";"  Visitas guiadas gratuitas  con reserva previa los martes y mircoles (a partir de septiembre se podr reservar para el ltilmo trimestre del ao), y sin reserva los jueves, viernes y sbados, a cargo de los voluntarios culturales de la Confederacin de Aulas de la Tercera Edad. Esta actividad seguir en curso hasta finales de junio. ";"1";"http://www.madrid.es/vgn-ext-templating/v/index.jsp?vgnextchannel=9e4c43db40317010VgnVCM100000dc0ca8c0RCRD&vgnextoid=a4efb0c40971c010VgnVCM1000000b205a0aRCRD";"VENTURA RODRIGUEZ";"CALLE";"V";"17";"";"";"";"";"MADRID";"MADRID";"28008";"ARGUELLES";"MONCLOA-ARAVACA";"439489";"4475246";"40.42376732078657";"-3.7146170388153497";"915 473 646 / 47";"915 591 171";"museo.cerralbo@mecd.es";"/contenido/entidadesYorganismos/Museos"; 
18176;"Museo Colecciones del Instituto de Crdito Oficial (ICO)";" El Museo Colecciones  ICO  abri sus puertas al pblico en marzo de 1996. Su objetivo era difundir la coleccin de arte del Instituto de Crdito Oficial, una de las ms importantes de arte espaol contemporneo.  ";"  De martes a sbado: de 11 a 20 horas  Domingo y festivos: de 10 a 14 horas  Cerrado: todos los lunes del ao (incluidos festivos) y los das 1 de enero, 1 de mayo y 25 de diciembre   Los das 24 y 31 de diciembre el Museo ICO permanecer abierto de 10 a 14 horas.   ";"  Colecciones:  Suite Vollard, de Pablo Picasso - Pintura Espaola Contempornea - Escultura Moderna Espaola con Dibujo.   Servicios:  adems de exponer y difundir sus propios fondos, trabaja en la realizacin de exposiciones temporales que parten, principalmente, de tres lneas. La primera est dedicada a la realizacin de exposiciones de  arquitectura y diseo , tanto de arquitectos nacionales como de mbito internacional. La segunda lnea se dedica a la colaboracin anual que el museo mantiene con el festival de fotografa  PHotoEspaa  y que ha permitido la exposicin de reputados artistas como Man Ray o Dorothea Lange. Por ltimo, la tercera de estas lneas est dedicada a la difusin de la  obra poco conocida de artistas presentes en las colecciones  ICO .  Esta poltica expositiva ha permitido conocer nuevas facetas de artistas como Susana Solano, Guillermo Prez Villalta o Daro Urzay.  ";" Metro: Banco de Espaa (lnea 2) , Sevilla (lnea 2)  Bus: 5, 9, 15, 10, 14, 27, 34, 37, 45, 51, 150 ";"";"1";"http://www.madrid.es/vgn-ext-templating/v/index.jsp?vgnextchannel=9e4c43db40317010VgnVCM100000dc0ca8c0RCRD&vgnextoid=2886444a2951c010VgnVCM2000000c205a0aRCRD";"ZORRILLA";"CALLE";"V";"3";"";"";"";"";"MADRID";"MADRID";"28014";"CORTES";"CENTRO";"440915";"4474456";"40.41675330128869";"-3.6977346235068373";"914 201 242";"";"museoico@ico.es";"/contenido/entidadesYorganismos/Museos"; 
2068;"Museo de Aeronutica y Astronutica";" Emplazado en Cuatro Vientos desde 1966, tiene como objetivo narrar la historia y el desarrollo cientfico-tcnico de la Aeronutica y Astronatica espaolas con 150 aeronaves, uniformes, condecoraciones, maquetas, armamento y una destacada coleccin de motores en 70.000  m2  , distribuidos en siete hangares y siete plataformas al aire libre.  ";" De martes a domingo de 10 a 14 horas, a partir de las 13:30 no se permite la entrada de pblico.  Cerrado: los lunes, das 1 y 6 de enero, Jueves y Viernes Santo, 12 de octubre,  das 10, 24, 25 y 31 de diciembre y el mes de agosto ";"Aparcamiento gratuito, cafetera, tienda - librera, saln de actos. ";" Bus: 518 , 521 , 522 , 523 (salida: Prncipe Po).   Metro: Cuatro Vientos   Vehculo particular: Entrada por la A-V, en sentido Madrid, Km. 10.500 (carretera de Extremadura). Ver plano entrada al Museo en documentacin asociada.  ";"  Visitas de grupo:  previa peticin de cita  ";"1";"http://www.madrid.es/vgn-ext-templating/v/index.jsp?vgnextchannel=9e4c43db40317010VgnVCM100000dc0ca8c0RCRD&vgnextoid=90aaef4d7f71c010VgnVCM1000000b205a0aRCRD";"A-5";"AUTOVIA";"T";"10.500";"";"";"";"Km. 10,5";"MADRID";"MADRID";"28024";"CUATRO VIENTOS";"LATINA";"432348";"4469705";"40.3733013700739";"-3.798200034372686";"915 091 690 (centralita) / 915 095 644 (reserva de actividades)";"917 106 847";"";"/contenido/entidadesYorganismos/Museos"; 
2091;"Museo de Amrica";"Colecciones arqueolgicas, etnogrficas y de arte colonial tradas a Espaa entre los siglos XVI y XX, cuya temtica abarca desde la Prehistoria americana hasta la actualidad. Destacan el Tesoro de los Quimbayas, los Enonchados de la Conquista de Mxico y las colecciones europeas ms antiguas sobre los indios de las praderas.";"  Horario:    De martes a sbado, de 9:30 a 15 horas  Jueves, apertura continuada de 9:30 a 19 horas  Domingos y festivos de 10 a 15 horas     Cerrado:  todos los lunes del ao, da 1 y 6 de enero, da 1 de mayo, das 24, 25 y 31 de diciembre y un festivo local. ";" Biblioteca - Tienda - Cafetera - Accesible a personas con minusvala (fsica) - Visita guiada para grupos - Visitas guiadas a las piezas ms representativas de las colecciones del museo (sbados a las 11 horas) - Club de Lectura   ";" Bus: 1, 12, 44, 82, 132  Metro: Moncloa (Lneas 3, 6) ";" Inscripcin en el telfono 915 439 437  Sitio web:  Migrar es cultura , para mostrar diversidad, intercambio y pluralismo cultural derivados de las migraciones, a base de diferentes canales temticos y compuesta por textos, fotografas y sobre todo videos cortos, elaborados por los propios internautas   ";"1";"http://www.madrid.es/vgn-ext-templating/v/index.jsp?vgnextchannel=9e4c43db40317010VgnVCM100000dc0ca8c0RCRD&vgnextoid=c929ef4d7f71c010VgnVCM1000000b205a0aRCRD";"REYES CATOLICOS";"AVENIDA";"V";"6";"";"";"";"";"MADRID";"MADRID";"28040";"CIUDAD UNIVERSITARIA";"MONCLOA-ARAVACA";"438889";"4476828";"40.43797469898852";"-3.721841843311362";"915 439 437 / 915 492 641";"915 446 742";"";"/contenido/entidadesYorganismos/Museos"; 
83922;"Museo de Arte Contemporneo de Madrid (cerrado)";" Se ubica en el histrico Caurtel del Conde Duque, obra de principios del siglo XVIII del arquitecto Pedro de Ribera. Al igual que otros museos de arte contemporneo,nacionales o extranjeros, se ha utilizado un edificio histrico para albergar las colecciones de ate contemporneo del Ayuntamiento de Madrid con arreglo a un programa de rehabilitacin integral del edificio para usos y servicios culturales, de acuerdo a la legislacin sore accesibilidad vigente en nuestra Comunidad /Ley 8 /1993 de 22 de junio de Promocin de la Accesibilida y Supresin de Barreras Arquitectnicas) ";"  De martes a viernes de 10 a 14 y de 17:30 a 21 horas  Sgados, domingos y festivos de 10:30 a 14:30 horas.  Cerrado los lunes (incluso festivos) y das 1 y 6 de enero, 1 de mayo y 25 de diciembre   El horario de taquilla finaliza 20 minutos antes de la hroa de cierre del museo.   Las salas se desalojan 15 minutos antes del cierre. ";"  Personal de informacin en el mostrador ubicado en el acceso central del museo y a lo largo de todo el recorrido, distribuidos por todo el museo  Cafera  Tienda  Guardarropa y servicio de consignas  Zonas adaptadas para bebs, con cambiadores y servicios de familia  Zona wifi en cafetera y biblioteca  Servicio mdico  Aparcamiento para bicicletas, frente a la entrda principal del edificio de Conde Duque    Accesibilidad:  cuenta en la actualidad con accesos y servicios adaptados a minusvlidos a lo largo de todo su recorrido.   ";" Metro: Ventura Rodrguez (lnea 3), Plaza de Espaa lneas 3, 10), San Bernardo (lneas 2, 4), Noviciado (lnea7, 10)  Bus: 1, 2, 21, 44, 74, 133, C, M2  Renfe: Prncipe Po  Aparcamiento pblico: plaza de Espaa (accesible) ";"";"1";"http://www.madrid.es/vgn-ext-templating/v/index.jsp?vgnextchannel=9e4c43db40317010VgnVCM100000dc0ca8c0RCRD&vgnextoid=84a55c2cdc41c010VgnVCM2000000c205a0aRCRD";"CONDE DUQUE";"CALLE";"V";"9";"";"";"";"";"MADRID";"MADRID";"28015";"UNIVERSIDAD";"CENTRO";"439832";"4475644";"40.42737760210632";"-3.7106116887809817";"915 885 928  /  915 885 861";"";"mmacmdifusion@madrid.es";"/contenido/entidadesYorganismos/Museos"; 
2069;"Museo de Artes y Tradiciones Populares. Centro Cultural La Corrala";" El Museo se forma tras la donacin de la coleccin de Guadalupe Gonzlez Hontoria a la Universidad Autnoma de Madrid. Las piezas comprenden:   El ciclo vital humano y religiosidad popular  El ciclo festivo anual, instrumentos musicales, bailes y juegos de adultos  Tareas domsticas  Agricultura, ganadera, caza y pesca  Los oficios artesanales y transporte rural.  ";"Permanece abierto al pblico de lunes a viernes con horario de 10 a 14 horas y de 17 a 21 horas. Sbados de 10 a 14 horas";" Visitas guiadas previa cita en el telfono del Museo o en  visitas.atp@mam.es  ";" Metro: La Latina (lnea 5)  Bus: 41, 60, 148 y Circular  Renfe: Embajadores /Atocha ";"";"0";"http://www.madrid.es/vgn-ext-templating/v/index.jsp?vgnextchannel=9e4c43db40317010VgnVCM100000dc0ca8c0RCRD&vgnextoid=5c39ef4d7f71c010VgnVCM1000000b205a0aRCRD";"CARLOS ARNICHES";"CALLE";"V";"3-5";"";"";"";"";"MADRID";"MADRID";"28005";"EMBAJADORES";"CENTRO";"440008";"4473583";"40.408814891299514";"-3.7083421466389113";"914 976 500";"914 976 510";"museoatp@uam.es";"/contenido/entidadesYorganismos/Museos"; 
2092;"Museo de Astronoma y Geodesia";" La coleccin se compone de objetos relacionados con el mundo de la Astronoma, como teodolitos, cronmetros, brjulas topogrficas, sextantes giroscpicos, astrolabios de prisma, cmaras fotogrficas para eclipse,  etc   ";"Visita con cita previa";"";"Bus: 82 , F , 132 , I , G ";"";"0";"http://www.madrid.es/vgn-ext-templating/v/index.jsp?vgnextchannel=9e4c43db40317010VgnVCM100000dc0ca8c0RCRD&vgnextoid=ee49ef4d7f71c010VgnVCM1000000b205a0aRCRD";"CIENCIAS";"PLAZA";"V";"3";"";"";"";"";"MADRID";"MADRID";"28040";"CIUDAD UNIVERSITARIA";"MONCLOA-ARAVACA";"438528";"4478102";"40.44942472705852";"-3.7262214898219117";"913 944 615";"913 944 615";"";"/contenido/entidadesYorganismos/Museos"; 
5727435;"Museo de Bomberos";"";" Abierto todos los das de  09:30  a  14:00  horas, excepto 25 de diciembre, 1 enero,  6 de enero y 1 de mayo.    Nota:  El museo permanecera cerrado hasta octubre de 2015 por obras de acondicionamiento.     Visitas Guiadas  Se pueden concertar en el telfono: 91 478 65 72 ( Museo )  Ms informacin: 91 588 99 07 - 91 588 82 40  ";"   Exposicin fotogrfica  Un recorrido por toda su historia: grandes incendios, construccin de los primeros parques, bomberos fallecidos en acto de servicio...   Vehculos  Una amplia gama de los vehculos utilizados en los ltimos 400 aos: Las primeras bombas brazales, clsicos de los aos veinte y vehculos adaptados de la II Guerra Mundial.   Herramientas y equipos  Diferentes escalas de gancho, extintores primitivos o las primeras lonas de salvamento nos dan una idea de cmo han trabajado los bomberos en los ltimos siglos as como herramientas de distintas pocas que nos muestran el avance tecnolgico en la lucha contra el fuego y salvamento.   Cascos  Amplia exposicin en la que se muestra la evolucin de los cascos en Madrid. Adems se expone una coleccin internacional en la que se aprecia, en su diseo, la mezcla de proteccin, materiales y comodidad en los diferentes pases del mundo.   Uniformes  De poca, trajes de gala, as como varios modelos que fueron utilizados en sucesos destacados de la historia de Madrid. Completan esta coleccin varios trajes de aproximacin al fuego y proteccin qumica especial entre otros.   Comunicaciones  Antiguamente los bomberos se comunicaban mediante toques de corneta. Esta exposicin muestra las partituras con sus particulares comandas. Adems, la exposicin incluye la evolucin de los equipos de comunicaciones.   Sanitario  Una cmara de recuperacin respiratoria para los bomberos intoxicados por el humo en los fuegos es uno de los mayores atractivos de este rea.  ";"  Metro : L1- Buenos Aires  Bus : 141 y 143 ";"  Abierto al pblico en 1982, rene todos los instrumentos usados por los bomberos durante ms de cuatro siglos.      Acceso para minusvlidos        Entrada gratuita      Apropiado para nios                Visita para grupos con cita previa  ";"0";"http://www.madrid.es/vgn-ext-templating/v/index.jsp?vgnextchannel=9e4c43db40317010VgnVCM100000dc0ca8c0RCRD&vgnextoid=9f0966a8bba49210VgnVCM2000000c205a0aRCRD";"BOADA";"CALLE";"V";"4";"";"";"";"";"MADRID";"MADRID";"28038";"NUMANCIA";"PUENTE DE VALLECAS";"444613";"4471961";"40.39453171263195";"-3.6539313207612207";"91 478 65 72 (Museo),                                                                                                                  
                                                                                                                      
";"";"sgbomberos@madrid.es";"/contenido/entidadesYorganismos/Museos"; 
2090;"Museo de Calcografa Nacional";" Expone colecciones de planchas y grabados.  ";"  De octubre a junio de lunes a viernes de 9 a 17 horas.  Verano: de julio a septiembre de 9 a 15 horas.   Agosto cerrado   En el caso de que se celebren exposiciones, consultar horario, ya que puede variar.  ";"Sala de exposiciones - Biblioteca";" Metro: Sol (Lneas 1, 2, 3), Sevilla (Lnea 2)  Bus: 5, 15, 20, 51, 52, 53, 150 ";"";"0";"http://www.madrid.es/vgn-ext-templating/v/index.jsp?vgnextchannel=9e4c43db40317010VgnVCM100000dc0ca8c0RCRD&vgnextoid=7169ef4d7f71c010VgnVCM1000000b205a0aRCRD";"ALCALA";"CALLE";"V";"13";"";"";"";"";"MADRID";"MADRID";"28014";"SOL";"CENTRO";"440667";"4474557";"40.41764548040709";"-3.700667044636178";"915 240 864";"915 240 977";"calcografianacional.delegado@rabasf.org";"/contenido/entidadesYorganismos/Museos"; 
2084;"Museo de Cera";"";" De lunes a viernes de 10 a 14,30 y de 16,30 a 20,30 horas.  Sbados, domingos y festivos de 10 a 20,30 horas.  Los das 25 de diciembre y 1 de enero, el museo abre de 10 a 14:30 horas y de 16:30 a 20:30 horas.  Las taquillas cierran media hora antes. ";"Apropiado para nios";" Metro: Coln  Bus: 5 , 14 , 21 , 27 , 45 , 53 , 15  Renfe: Recoletos ";"";"1";"http://www.madrid.es/vgn-ext-templating/v/index.jsp?vgnextchannel=9e4c43db40317010VgnVCM100000dc0ca8c0RCRD&vgnextoid=9689ef4d7f71c010VgnVCM1000000b205a0aRCRD";"RECOLETOS";"PASEO";"V";"41";"";"";"";"";"MADRID";"MADRID";"28004";"JUSTICIA";"CENTRO";"441456";"4475301";"40.424403779665376";"-3.6914362030084815";"913 194 681";"913 080 825";"info@museoceramadrid.com";"/contenido/entidadesYorganismos/Museos"; 
2108;"Museo de Farmacia Militar";"Superficie de 600  m/2  donde se exponen fondos de carcter histrico y cientfico. Las colecciones abarcan desde los orgenes de la ciencia farmacutica, recreado en el laboratorio yatroqumico del siglo XVII, hasta los actuales procesos para la elaboracin de preparados.";" De lunes a viernes de 10 a 13 horas, slo visitas concertadas ";"";" Metro: Embajadores (lnea 3)  Bus: 27 , 34 , 36 , 41 , 60 , 78 , 116 , 119 , 148 , C  Renfe :  Embajadores ";"";"0";"http://www.madrid.es/vgn-ext-templating/v/index.jsp?vgnextchannel=9e4c43db40317010VgnVCM100000dc0ca8c0RCRD&vgnextoid=ea0aef4d7f71c010VgnVCM1000000b205a0aRCRD";"EMBAJADORES";"CALLE";"V";"75";"";"";"";"";"MADRID";"MADRID";"28012";"PALOS DE MOGUER";"ARGANZUELA";"440636";"4472954";"40.403202661477145";"-3.7008825895813167";"915 399 503            
";"915 302 707";"smunort@oc.mde.es";"/contenido/entidadesYorganismos/Museos"; 
4545827;"Museo de Historia de la Comunidad Juda de Madrid";"";"  Visitas guiadas     Individual : ltimo jueves de cada mes a las 19 horas, salvo festividades (confirmar previamente).   Grupos  (mnimo 10 personas): consultar telfono: 915 913 131 (Ext. 4 o correo electrnico:  visita@cjmadrid.org   ";"";" Metro: Iglesia (lnea 1)  Bus: 5, 12, 16, 37, 61, 149  ";"";"0";"http://www.madrid.es/vgn-ext-templating/v/index.jsp?vgnextchannel=9e4c43db40317010VgnVCM100000dc0ca8c0RCRD&vgnextoid=8f2a4a659ee71110VgnVCM1000000b205a0aRCRD";"BALMES";"CALLE";"V";"3";"";"";"";"";"MADRID";"MADRID";"28010";"TRAFALGAR";"CHAMBERI";"440738";"4476521";"40.43534317115623";"-3.700013620203689";"915 913 131 ";"";"secretaria@cjmadrid.org";"/contenido/entidadesYorganismos/Museos"; 
2054;"Museo de Historia de Madrid";" Antiguo Museo Municipal de Madrid. ";"  Cerrado temporalmente desde el da 3 de noviembre de 2014     Museo     De martes a viernes de 9:30 a 14:30 horas.   sbados, domingos y festivos de 9:30 a 20 horas   Cerrado los lunes y los das 1 de enero, 1 de mayo y 25 de diciembre    Biblioteca:  de lunes a viernes de 8:30 a 14: 30 horas   Servicio de documentacin:  de lunes a viernes de 8:30 a 14:30 horas ";"  Biblioteca de investigacin  Servicio de documentacin  Guardarropa  ";" Metro: Tribunal , Bilbao  Bus: 3, 21, 40, 147, 149  Aparcamiento pblico: Barcel ";"  Accesibilidad fsica:    Rampa de acceso a la entrada.  Ascensores.  Aseos adaptados.  Silla de ruedas.  ";"1";"http://www.madrid.es/vgn-ext-templating/v/index.jsp?vgnextchannel=9e4c43db40317010VgnVCM100000dc0ca8c0RCRD&vgnextoid=8f3079262ef5d010VgnVCM1000000b205a0aRCRD";"FUENCARRAL";"CALLE";"V";"78";"";"";"";"";"MADRID";"MADRID";"28004";"JUSTICIA";"CENTRO";"440659";"4475459";"40.42577054821346";"-3.700845660719608";"917 011 863";"917 011 686";"smuseosm@madrid.es";"/contenido/entidadesYorganismos/MonumentosEdificiosArtisticos"; 
4591873;"Museo de la Biblioteca Nacional";" El Museo cuenta con unos 1.400 m2 y se distribuye en ocho salas.  ";" De martes a sbados de 10 a 20 y domingos de 10 a 14 horas. Lunes cerrado. ltimo pase treinta minutos antes del cierre. Entrada gratuita.   Das de cierre   Para 2014: 1 y 6 de enero, 1 de mayo, 10 de noviembre y 8, 24, 25 y 31 de diciembre ";" Talleres escolares y para pblico en general, visitas guiadas, piezas del mes, etc.  ";" Metro: Coln y Serrano (lnea 4)  Bus: 1, 5, 9, 14, 19, 21, 27, 37, 45, 51, 53, 74, 150  Cercanas: Recoletos ";"";"0";"http://www.madrid.es/vgn-ext-templating/v/index.jsp?vgnextchannel=9e4c43db40317010VgnVCM100000dc0ca8c0RCRD&vgnextoid=05920d3b4c503110VgnVCM2000000c205a0aRCRD";"RECOLETOS";"PASEO";"V";"20";"";"";"";"";"MADRID";"MADRID";"28001";"RECOLETOS";"SALAMANCA";"441503";"4475142";"40.42297474261295";"-3.6908675320710223";"915 807 759 ";"915 168 928";"museo@bne.es";"/contenido/entidadesYorganismos/Museos"; 
4566286;"Museo de la Catedral de la Almudena";"";"De lunes a sbado de 10 a 14:30 horas. Cerrado los domingos, fiestas de precepto y das de actos de culto especiales";"";"Bus: 3, 148, L3";"";"0";"http://www.madrid.es/vgn-ext-templating/v/index.jsp?vgnextchannel=9e4c43db40317010VgnVCM100000dc0ca8c0RCRD&vgnextoid=82cb8d0e78d22110VgnVCM1000000b205a0aRCRD";"ALMUDENA";"PLAZA";"V";"S/N";"";"";"";"ENTRADA AL MUSEO POR UN COSTADO DE LA ENTRADA PRINCIPAL";"MADRID";"MADRID";"28013";"PALACIO";"CENTRO";"439559";"4474255";"40.41484504627648";"-3.7136975721439347";"915 592 874";"";"museoalmudena@planalfa.es";"/contenido/entidadesYorganismos/Museos"; 
2073;"Museo de la Farmacia Hispana";" Entre sus fondos destacan las colecciones de botes cermicos, morteros y cajas de madera policromadas, relaciondos con la prctica docente, cuatro boticas histricas y tres instalaciones que recrean un laboratorio alquimista, una botica rabe y la botica del Hospital de San Juan de las Afueras (Toledo). ";" De lunes a viernes de 9 a 14 horas (periodo lectivo).  ";"";" Metro: Ciudad Universitaria  Bus: 82 , 132 , G ";"";"0";"http://www.madrid.es/vgn-ext-templating/v/index.jsp?vgnextchannel=9e4c43db40317010VgnVCM100000dc0ca8c0RCRD&vgnextoid=58f9ef4d7f71c010VgnVCM1000000b205a0aRCRD";"RAMON Y CAJAL";"PLAZA";"V";"0";"";"";"";"";"MADRID";"MADRID";"28040";"CIUDAD UNIVERSITARIA";"MONCLOA-ARAVACA";"438524";"4477559";"40.4445328804645";"-3.7262160043788155";"913 941 797";"913 941 797";"museofar@farm.ucm.es";"/contenido/entidadesYorganismos/Museos"; 
2107;"Museo de la Guardia Civil";" El Museo se crea por Orden General del Cuerpo de 23 de junio de 1982 y se inaugura el da 12 de octubre de 1982.  Los fondos que forman el Museo han sido aportados o depositados bien por entidades pblicas o privadas, bien por las distintas Unidades del Cuerpo, todos los cuales estn vinculados de alguna manera a las vicisitudes e historia de la Guardia Civil desde su creacin hasta nuestros das. Existen cuatro salas denominadas: banderas (rellano de la 2&ordf; Planta), sala de arma, sala de uniformes y maniquies, sala de objetos varios y dioramas. ";" De lunes a viernes de 9 a 14 horas. Sbados, domingos y festivos cerrado ";"";" Metro: Guzmn el Bueno (lnea 6, 7)  Bus: 2,  44, 45, Circular ";"  Visita:  previa identificacin personal   Visita de grupos:  debe concertarse cita previa por escrito ";"0";"http://www.madrid.es/vgn-ext-templating/v/index.jsp?vgnextchannel=9e4c43db40317010VgnVCM100000dc0ca8c0RCRD&vgnextoid=003aef4d7f71c010VgnVCM1000000b205a0aRCRD";"GUZMAN EL BUENO";"CALLE";"V";"110";"";"";"";"";"MADRID";"MADRID";"28003";"VALLEHERMOSO";"CHAMBERI";"439705";"4477551";"40.44454745648486";"-3.7122900396933813";"915 146 000 ( Ext. 8477 / 8495 /48477)";"";"dg-estuhistoricos-registro@guardiacivil.org";"/contenido/entidadesYorganismos/Museos"; 
2114;"Museo de la Real Academia de Bellas Artes de San Fernando";"Construido inicialmente para palacio de D. Juan de Goyeneche, el edificio fue adquirido por la Academia de Bellas Artes en 1773 y reformado bajo la direccin de Fernando Chueca Goitia en 1973 y la fachada por Diego de Villanueva en 1774.";"  Coleccin permanente:  de martes a domingos de 10 a 15 horas., incluyendo festivos. Lunes cerrado.      Exposiciones temporales:  consultar telefnicamente  Cerrado das 1 y 6 de enero, 1 y 30 de mayo, 9 de noviembre; 24, 25 y 31 de diciembre.  ";"Sala de exposiciones - Accesible a personas con minusvala (fsica).";" Metro: Sol, Sevilla  Bus: 3 , 5 , 15 , 20 , 50 , 51 , 55 , 53 , 150 ";"  Visitas guiadas (no grupos):  martes, jueves y viernes a las 11 horas, excepto Navidad, Semana Santa y agosto.   Visitas para grupos y privadas : gratuitas y guiadas a cargo de voluntarios culturales del Museo previa solicitud. Visitas de grupo:  museo.visitas@rabasf.org  - Visitas privadas a museo cerrado:  actos.culturales@rabasf.org   ";"1";"http://www.madrid.es/vgn-ext-templating/v/index.jsp?vgnextchannel=9e4c43db40317010VgnVCM100000dc0ca8c0RCRD&vgnextoid=924aef4d7f71c010VgnVCM1000000b205a0aRCRD";"ALCALA";"CALLE";"V";"13";"";"";"";"";"MADRID";"MADRID";"28014";"SOL";"CENTRO";"440667";"4474557";"40.41764548040709";"-3.700667044636178";"915 240 864 (Centralita)                            
";"915 241 034";"";"/contenido/entidadesYorganismos/MonumentosEdificiosArtisticos"; 
2095;"Museo de Mineraloga";"";"Lunes, martes, mircoles y jueves de 12:30 a 14:30 horas (conviene concertar previamente la visita) ";"Colecciones de minerales clasificados por su composicin qumica, y vitrinas murales con ejemplares de exhibicin procedentes de todo el mundo.";"Renfe: Cantoblanco Universidad";"";"0";"http://www.madrid.es/vgn-ext-templating/v/index.jsp?vgnextchannel=9e4c43db40317010VgnVCM100000dc0ca8c0RCRD&vgnextoid=255aef4d7f71c010VgnVCM1000000b205a0aRCRD";"COLMENAR VIEJO";"CARRETERA";"KM.";"19000";"4";"";"";"FACULT. DE CIENCIAS - U. AUTONOMA. mdulo M-06";"MADRID";"MADRID";"28049";"EL GOLOSO";"FUENCARRAL-EL PARDO";"0";"0";"";"";"914 974 125";"";"museo.mineralogia@uam.es";"/contenido/entidadesYorganismos/Museos"; 
2112;"Museo de San Isidro. Los orgenes de Madrid";" Este espacio museogrfico propone un viaje por la historia de la ciudad de Madrid desde la Prehistoria hasta el establecimiento de la Corte, a travs de distintas salas como la de San Isidro, el Patio Renacentista, el Jardn Arqueobotnico o el Almacn Visitable.  ";"   General:  de martes a domingo y festivos de 9:30 a 20 horas   Agosto:  de martes a viernes de 9:30 a 14:30 horas y sbados, domingos y festivos de 9:30 a 20 horas   Cerrado:  todos los lunes, 1 y 6 de enero, 1 de mayo y 25 de diciembre   24 y 31 de diciembre:  el museo permanecer abierto de 10 a 14 horas  ";"  Sala de investigadores - Biblioteca especializada en arqueologa e historia madrilea - Archivo documental - El almacn visitable (ms de 600 piezas arqueolgicas) y el Jardn arqueobotnico (con informacin documentada sobre las especies de la ciudad)  Exposicin permanente: &quot;Orgenes: Un viaje al pasado de Madrid&quot;. Un recorrido a travs de la evolucin del territorio madrileo y de sus pobladores hasta el establecimiento de la Corte en 1561. Con proyecciones en 3D estereoscpicas que permiten a los visitantes interactuar con animales de hace 40.000 aos procedentes de excavaciones madrileas.      Otros espacios visitables: las estancias de San Isidro, as como una importante coleccin de iconografa de San Isidro y de Santa Mara de la Cabeza.   Investigadores: los fondos del Museo estn a disposicin de la comunidad cientfica y los investigadores podrn acceder a ella con una simple peticin formal a la direccin.  Visitas guiadas por voluntarios culturales. Talleres didcticos para grupos escolares.  ";" Metro: Latina , Tirso de Molina  Bus: 3 , 17 , 18 , 23 , 35 , 60 , 65 , 148 ";"";"1";"http://www.madrid.es/vgn-ext-templating/v/index.jsp?vgnextchannel=9e4c43db40317010VgnVCM100000dc0ca8c0RCRD&vgnextoid=7b7aef4d7f71c010VgnVCM1000000b205a0aRCRD";"SAN ANDRES";"PLAZA";"V";"2";"";"";"";"";"MADRID";"MADRID";"28005";"PALACIO";"CENTRO";"439795";"4473945";"40.412069631779325";"-3.710874934826838";"913 667 415";"";"museosanisidro@madrid.es";"/contenido/entidadesYorganismos/Museos"; 
85301;"Museo de Sanidad e Higiene Pblica";" Ubicado en las antiguas dependencias del Laboratorio de Microbiologa del Hospital del Rey. 800  m2  conservados tal cual su antiguo uso, con fondos de mobiliario, instrumental y bibliografa de los antiguos hospitales para enfermos infecciosos del complejo. Se resaltan hitos histricos relevantes en salud pblica mediante lminas enmarcadas.  ";" Consultar telefnicamente ";"";" Metro: Chamartn (lneas 1, 10), Plaza de Castilla (1, 9, 10)  Bus: 124, 67 , 134 , 135 , 147  Renfe: Chamartn ";" Las  visitas guiadas a grup os se realizan de lunes a viernes de 10 a 14 horas, previa cita telefnica (telfono: 918 222 334) o a travs de la direccin de correo electrnico:  museo@iscii.es  ";"0";"http://www.madrid.es/vgn-ext-templating/v/index.jsp?vgnextchannel=9e4c43db40317010VgnVCM100000dc0ca8c0RCRD&vgnextoid=3e755c2cdc41c010VgnVCM2000000c205a0aRCRD";"MONFORTE DE LEMOS";"AVENIDA";"V";"5";"";"";"";"";"MADRID";"MADRID";"28029";"LA PAZ";"FUENCARRAL-EL PARDO";"441617";"4480968";"40.47546597881768";"-3.6900603941123107";"918 222 334 / 2320     
";"";"museodesanidad@iscii.es";"/contenido/entidadesYorganismos/Museos"; 
187029;"Museo del Atltico de Madrid";" En el Museo del Atltico de Madrid &amp; Coleccin Pablo Ornaque se puede disfrutar de un recorrido histrico por el ftbol en general, y del Atltico de Madrid, en particular, donde los aficionados al ftbol no slo contemplarn trofeos y objetos, sino tambin  un museo deportivo con piezas de gran valor musestico que alberga en sus vitrinas.   Se realizan visitas guiadas al estadio y a las instalaciones del Museo ";"   Horarios del Museo    De martes a domingo, de 11 a 19 horas.  Das de partido: desde las 11 horas hasta el inicio del encuentro.     Horarios de las visitas guiadas    De martes a domingo a las 12, 13, 16:30 y 17:30 horas  Verano (de 28 de junio al 14 de septiembre): de martes a viernes a las 12, 13, 16:30 y 17:30 horas    ";"";" Metro: Pirmides (lnea 5), Marqus de Vadillo (lnea 5)  Bus: 23, 34, 35, 36, 50, 116, 118, 119 ";"";"0";"http://www.madrid.es/vgn-ext-templating/v/index.jsp?vgnextchannel=9e4c43db40317010VgnVCM100000dc0ca8c0RCRD&vgnextoid=e41ad2bec675e010VgnVCM1000000b205a0aRCRD";"VIRGEN DEL PUERTO";"PASEO";"V";"67";"";"";"";"";"MADRID";"MADRID";"28005";"IMPERIAL";"ARGANZUELA";"438902";"4472770";"40.40141951261679";"-3.7212862502237236";"913 650 931 / 913 666 568 / 902 260 403";"";"";"/contenido/entidadesYorganismos/Museos"; 
2066;"Museo del Ferrocarril de Madrid";"Edificio de caracter monumental. Construido como cabecera de la lnea Madrid - Extremadura - Portugal en el ao 1880 por E. Cachelievre.";"  De martes a viernes de 9 a 15 horas.   Sbados de 10 a 20 horas.   Domingos de 10 a 15 horas.   Cerrado los lunes (incluidos festivos), del 16 al 31 de agosto (ambos inclusive), y los das 1 y 6 de enero, 1 de mayo y 25 de diciembre.   Con motivo de la celebracin del &lsquo;Mercado de Motores&rsquo; el segundo fin de semana de cada mes de enero a junio, el horario del Museo (cuyo espacio visitable estar restringido a su Nave Central) ser de 11 a 22 horas y el acceso ser gratuito. ";"  Tienda  Teatro  Librera  Cafetera  Servicio Documental  Salas de Modelismo Ferroviario, de Traccin, de Infraestructura, de Relojes, Faustino GArca Linares  Enclavamiento hidrulico de Algodor    Actividades    Mercadillo de modelismo (primeros domingos de cada mes)  Actividades para escolares  ";" Metro: Delicias (lnea 3)  Bus: 8 , 19 , 45 , 47 , 59 , 85 , 86  Renfe: Delicias ";"";"1";"http://www.madrid.es/vgn-ext-templating/v/index.jsp?vgnextchannel=9e4c43db40317010VgnVCM100000dc0ca8c0RCRD&vgnextoid=091c4291ae91f010VgnVCM2000000c205a0aRCRD";"DELICIAS";"PASEO";"V";"61";"";"";"";"";"MADRID";"MADRID";"28045";"DELICIAS";"ARGANZUELA";"441233";"4472625";"40.400281290485566";"-3.693817192160563";"902 228 822                                                      
";"";"museodelicias@ffe.es";"/contenido/entidadesYorganismos/MonumentosEdificiosArtisticos"; 
2058;"Museo del Prado";" Construido inicialmente como Museo de Ciencias Naturales, este edificio neoclsico fue transformado en pinacoteca de las Colecciones Reales en 1818 con colecciones de pintura, dibujos, grabados, monedas y medallas desde el Romnico hasta el siglo XIX. ";"  De lunes a sbado de 10 a 20 horas . Domingos y festivos de 10 a 19 horas    Cerrado:  1 de enero, 1 de mayo y 25 de diciembre   Horario reducido:  6 de enero, 24 y 31 de diciembre de 10 a 14 horas   Horario de taquillas: a cceso al Museo hasta 30 minutos antes del cierre (el desalojo de las salas comienza 10 minutos antes del cierre) ";"Accesible a personas con discapacidad fsica - Audioguas temticas, audiogua infantil - Librera - Tienda - Cafetera - Restaurante - Guadarropa";" Metro: Atocha (lnea 1), Banco de Espaa (lnea 2), Retiro (lnea 2)  Bus: 9, 10, 14, 19, 27, 34, 37, 45  Renfe: Atocha ";"  Arquitecto : Juan de Villanueva (1785 - 1808)   Adecuacin : Antonio Lpez Aguado (1818 - 1831)   Ampliacin : Rafael Moneo (2000 - 2007) ";"1";"http://www.madrid.es/vgn-ext-templating/v/index.jsp?vgnextchannel=9e4c43db40317010VgnVCM100000dc0ca8c0RCRD&vgnextoid=060079262ef5d010VgnVCM1000000b205a0aRCRD";"RUIZ DE ALARCON";"CALLE";"V";"23";"";"";"";"";"MADRID";"MADRID";"28014";"LOS JERONIMOS";"RETIRO";"441456";"4474099";"40.41357557281165";"-3.6913253533221817";"913 302 800";"";"";"/contenido/entidadesYorganismos/Museos"; 
2086;"Museo del Reloj Grassy";"  Arquitecto : Eladio Laredo Carranza (1916 - 1917).  Fundado por el relojero francs Grassy en 1955, este museo narra la historia de este aparato de medicin. Sus fondos, coleccin privada, constan de ms de quinientos ejemplares de diferentes nacionalidades y los ms variados estilos.  ";" Jueves de 18 a 19 horas y viernes de 11 a 12 horas.  Las visitas se efectan con cita previa llamando al  telfono 915 321 007 . Se encuentra en la Joyera Grassy, por tanto no se admiten visitas de grupos. ";"";" Metro: Banco de Espaa (lnea 2), Sevilla (lnea 2)  Bus: 1, 2, 5, 9, 15, 20, 51, 52, 53, 74, 146, 150 ";"";"0";"http://www.madrid.es/vgn-ext-templating/v/index.jsp?vgnextchannel=9e4c43db40317010VgnVCM100000dc0ca8c0RCRD&vgnextoid=daeaef4d7f71c010VgnVCM1000000b205a0aRCRD";"GRAN VIA";"CALLE";"V";"1";"";"";"";"";"MADRID";"MADRID";"28013";"CORTES";"CENTRO";"440889";"4474721";"40.41913869883697";"-3.6980657388420255";"915 321 007";"";"";"/contenido/entidadesYorganismos/Museos"; 
7685664;"Museo del Robot";" El Museo del Robot  nace con la idea de acercar de una forma directa y real el apasionante mundo de los robots de entretenimiento a cualquier tipo de pblico.";"  Visitas guiadas regulares  (entrada libre NO disponible):   Martes a viernes: pases a las 13, 17 y 20 horas    Visitas guiadas para grupos:    Martes, mircoles y Jueves, pases (solo maanas) de 10:30 a 12:00 horas  ";"  Exposicin permenente  Visitas guiadas  ";" Metro: San Bernardo (lneas 2, 4)  Bus: 3, 21, 147 ";"";"0";"http://www.madrid.es/vgn-ext-templating/v/index.jsp?vgnextchannel=9e4c43db40317010VgnVCM100000dc0ca8c0RCRD&vgnextoid=e0b7b8dc8f719410VgnVCM1000000b205a0aRCRD";"ALBERTO AGUILERA";"CALLE";"V";"1";"BAJA";"";"";"";"MADRID";"MADRID";"28015";"UNIVERSIDAD";"CENTRO";"440151";"4475876";"40.42949061464909";"-3.7068731815207014";"914 478 808";"";"";"/contenido/entidadesYorganismos/Museos"; 
2059;"Museo del Romanticismo";"";"  Verano (del 2 de mayo al 31 de octubre):  de martes a sbados de 9:30 a 20:30 horas. Domingos y festivos de 10 a 15 horas. Jueves de agosto se cierra a las 00 horas (Museo y Caf del Jardn).   De 1 de Noviembre a 30 de Abril:  de martes a sbado, de 9:30 a 18:30 horas. Domingos y festivos, de 10 a 15 horas.   Cerrado: todos los lunes, das 1 y 6 de enero, 1 de mayo, 24, 25 y 31 de diciembre y un festivo local (15 de mayo)  La Tienda y el Caf del Jardn se regirn por el mismo horario de invierno. ";"  Biblioteca   Sala de exposiciones  Saln de actos  Acceso para minusvlidos   Librera  ";" Metro: Tribunal (lneas 1 y 10), Alonso Martnez (lneas 4, 5 y 10)  Bus: 3, 37, 40 y 149  Renfe: Recoletos ";"  Visitas guiadas:  todos los sbados, (excepto el 16 de abril y el 8 de octubre) a las 11 y 13 horas. Actividad gratuita y sin reserva.   Descripcin monumental   Construido para casa palacio del Marqus de Montallana por el discpulo de Ventura Rodrguez, Manuel Martn Rodrguez, dentro de unas lneas clasicistas, tiene algunas leves reminiscencias del barroco, como las molduras en forma de orejeras en los balcones. Las estancias nobles se organizan en torno a dos patios cuadrados. Conserva un interesante jardn romntico.  En 1850 fue comprado por el Marqus de la Puebla de Maestre. Tras albergar la Comisara Regia de Turismo. En 1924 se convirti en Museo Romntico y desde entonces ha sido restaurado e intervenido en diversas ocasiones con motivo de su funcionamiento como museo.  Tras nueve aos cerrado ha sido reformado y puesto a punto, en aplicacin de un plan museolgico consistente en su renovacin, ampliando su mbito expresivo desde lo meramente literario hasta lo histrico, poltico, artstico y decorativo, para dar una visin de conjunto de esta etapa de la vida espaola.   Muestra la ambientacin de una casa romntica. Posee obras de los pintores ms importantes del siglo XIX (Goya, Madrazo y otros) junto a esculturas, muebles, porcelanas, abanicos y todo tipo de complementos decorativos que nos recuerdan la forma de vida de una familia burguesa del siglo XIX ";"0";"http://www.madrid.es/vgn-ext-templating/v/index.jsp?vgnextchannel=9e4c43db40317010VgnVCM100000dc0ca8c0RCRD&vgnextoid=706cef4d7f71c010VgnVCM1000000b205a0aRCRD";"SAN MATEO";"CALLE";"V";"13";"";"";"";"";"MADRID";"MADRID";"28004";"JUSTICIA";"CENTRO";"440834";"4475467";"40.42585510296794";"-3.6987835425963063";"914 481 045 / 914 480 163";"914 456 940";"informacion.romanticismo@mecd.es";"/contenido/entidadesYorganismos/Museos"; 
6337393;"Museo del Seguro. Fundacin Mapfre";" Ubicado en el edificio de FUundacin MAPFRE exhibe una amplia coleccin de piezas relacionadas con la historia de la actividad aseguradora desde el siglo  XVIII  hasta nuestros das.  ";" De lunes a Viernes previa peticin de hora.  ";"  Visitas guiadas y gratuitas para grupos  Visitas individuales gratuitas con audiogua  ";" Metro: Coln (lnea 4)  Bus: 5, 14, 21, 27, 37, 45, 53, 150  Renfe: Recoletos ";"";"0";"http://www.madrid.es/vgn-ext-templating/v/index.jsp?vgnextchannel=9e4c43db40317010VgnVCM100000dc0ca8c0RCRD&vgnextoid=479b95f8c72d5310VgnVCM2000000c205a0aRCRD";"BARBARA DE BRAGANZA";"CALLE";"V";"14";"";"";"";"";"MADRID";"MADRID";"28004";"JUSTICIA";"CENTRO";"441233";"4475245";"40.42388355388781";"-3.694059645939101";"91 581 20 08 (para reservas)                                 
";"";"";"/contenido/entidadesYorganismos/Museos"; 
2115;"Museo del Traje. Centro de Investigacin del Patrimonio Etnolgico (CIPE)";" Edificio de carcter monumental, construido por Jaime Lpez de Asian en 1969. Se caracteriza por su estructura de hormign y su exterior de placas metlicas y triple acristalamiento. ";" De martes a sbado de 9:30 a 19 horas. Domingos y festivos de 10 a 15 horas.  Verano (julio y agosto): los jueves se amplia el horario hasta las 22:30 horas.  Cerrado: todos los lunes, 1 y 6 de enero, 1 de mayo, 9 de noviembre, 24, 25 y 31 de diciembre. ";"  Visitas comentadas para grupos:  de 15 a 25 personas (con reserva previa) durante todo el ao.   Visitas guiadas a la exposicin permanente   Para participar en las visitas guiadas es necesario inscribirse previamente en el  telfono 915 504 708 (de lunes a viernes de 10 a 14 horas)  o por el email en   difusion.reservas.mt@mcu.es    ";" Metro: Moncloa (lneas 3, 6), Ciudad Universitaria (lnea 6)  Bus: 46, 82, 83, 132, 133, G ";"";"1";"http://www.madrid.es/vgn-ext-templating/v/index.jsp?vgnextchannel=9e4c43db40317010VgnVCM100000dc0ca8c0RCRD&vgnextoid=053c4291ae91f010VgnVCM2000000c205a0aRCRD";"JUAN DE HERRERA";"AVENIDA";"V";"2";"";"";"";"";"MADRID";"MADRID";"28040";"CIUDAD UNIVERSITARIA";"MONCLOA-ARAVACA";"438382";"4477019";"40.439657822278555";"-3.7278378564088275";"915 504 700 (Informacin)";"915 446 970";"museodeltraje@mecd.es";"/contenido/entidadesYorganismos/Museos"; 
2074;"Museo Geominero";" Construccin tpica de la arquitectura en hierro y cristal de principios del siglo XX que alberga colecciones de minerales, rocas y fsiles procedentes de todas las regiones espaolas y de antiguos territorios coloniales, as como de yacimientos significados del registro mundial. ";" De lunes a domingo y festivos de 9 a 14 horas. Cerrado: 1 y 6 de enero y 24, 25 y 31 de diciembre ";"";" Metro: Ros Rosas (lnea 1)  Bus: 3, 12, 37, 45, 149 ";"  Visitas guiadas:  para grupos de lunes a viernes, previa peticin cita   Objetivos del Museo : conservar, investigar y difundir el patrimonio geolgico, paleontolgico y mineralgico  ";"0";"http://www.madrid.es/vgn-ext-templating/v/index.jsp?vgnextchannel=9e4c43db40317010VgnVCM100000dc0ca8c0RCRD&vgnextoid=ff0bef4d7f71c010VgnVCM1000000b205a0aRCRD";"RIOS ROSAS";"CALLE";"V";"23";"";"";"";"";"MADRID";"MADRID";"28003";"RIOS ROSAS";"CHAMBERI";"440773";"4477266";"40.44205696051332";"-3.6996705622841457";"913 495 759";"913 495 828";"m.geominero@igme.es";"/contenido/entidadesYorganismos/Museos"; 
2075;"Museo Histrico Minero Don Felipe de Borbn y Grecia";"Ubicado en la Escuela Tcnica Superior de Ingenieros de Minas";" Previa cita concertada para grupos   Mercadillo de minerales y fsiles:  primer domingo de cada mes de 10 a 14 horas (en este perodo se podr visitar tambin el museo y la mina)   Exposicin anual  el segundo fin de semana (viernes, sbado y domingo) de marzo (el Museo permanecer abierto todo el da) ";"  Visitas guiadas   Coleccin de minerales, fsiles y rocas   Seccin de maquetas y utensilios utilizados tradicionalmente en la minera   Visita a mina experimental (pozo, castillete, galeras y testeros)  ";" Metro: Ros Rosas (lnea 1)  Bus: 3, 12, 37, 45, 149 ";"";"0";"http://www.madrid.es/vgn-ext-templating/v/index.jsp?vgnextchannel=9e4c43db40317010VgnVCM100000dc0ca8c0RCRD&vgnextoid=822bef4d7f71c010VgnVCM1000000b205a0aRCRD";"RIOS ROSAS";"CALLE";"V";"21";"";"";"";"";"MADRID";"MADRID";"28003";"RIOS ROSAS";"CHAMBERI";"440712";"4477269";"40.44207963042673";"-3.7003900716027776";"913 367 029";"913 367 068";"";"/contenido/entidadesYorganismos/Museos"; 
6019032;"Museo Los Caos del Peral. Estacin de Metro pera";"";" Viernes, sbados y domingos de 11 a 13 y de 17 a 19 horas ";"";"";"  Museo Los Caos del Peral   La estacin de pera cuenta en su interior con el mayor museo arqueolgico bajo tierra de Madrid, un espacio de 200 metros cuadrados donde se pueden ver restos arqueolgicos de los siglos  XVI  y  XVII  pertenecientes a la Fuente de los Caos del Peral, el Acueducto de Amaniel y la Alcantarilla del Arenal.  A principios del siglo  XVI  el agua no llegaba a las casas de Madrid a pesar de ser un elemento indispensable en el desarrollo de la ciudad y realizaban el abastecimiento mediante aljibes o pilas instaladas en las plazas y junto a puertas y murallas. En la Edad Moderna, las fuentes pblicas sustituyeron a los aljibes, y parte de esas fuentes es lo que encontramos hoy en pera.  La Fuente de los Caos del Peral contaba con seis caos y sus correspondientes pilas. El agua proceda del manantial de aguas gordas existentes en la plazuela de los Caos.  El Acueducto de Amaniel se remonta a comienzos del siglo  XVII , naca en la actual Dehesa de la Villa y surta agua al Palacio real.  La Alcantarilla del Arenal vino a paliar el problema de la evacuacin de las aguas sucias, por eso se canaliz para que desembocara en el arroyo de Leganitos, en algn punto de la actual Cuesta de San Vicente.  Elementos hidrulicos que acercan la historia a todos los visitantes que adems, tienen la posibilidad de acceder a la sala de audiovisuales para conocer la historia de los vestigios expuestos. ";"1";"http://www.madrid.es/vgn-ext-templating/v/index.jsp?vgnextchannel=9e4c43db40317010VgnVCM100000dc0ca8c0RCRD&vgnextoid=435950262d50f210VgnVCM2000000c205a0aRCRD";"ISABEL II";"PLAZA";"V";"1";"";"";"";"Estacin de pera (lneas 2, 5 y Ramal)";"MADRID";"MADRID";"28013";"PALACIO";"CENTRO";"439943";"4474575";"40.41775560280743";"-3.709202070089538";"902 444 403 (Informacin)";"";"";"/contenido/entidadesYorganismos/Museos"; 
2053;"Museo Lzaro Galdiano";"";"  Lunes y de mircoles a sbados de 10 a 16,30 horas.  Domingos de 10 a 15 horas.  Cerrado todos los martes, 1 y 6 de enero, 28 y 29 de marzo, 1 y 15 de mayo, 15 de agosto, 1 de noviembre y 24, 25 y 31 de diciembre.    Visitas guiadas  al Museo fuera de horario: de 17:30 a 18:45 horas, previa reserva telefnica en el 915 616 084 (extensin 101).    Horario para reserva telefnica: de lunes a jueves, de 8,30 a 16,30 horas, viernes hasta las 14 horas.   Importe: 2 euros (entrada al museo).   Mircoles y jueves: para grupos previamente constituidos.   Viernes para visitantes individuales reunidos para la visita.   ";"";" Bus: 9, 12, 16, 19, 51, 61  ";"";"1";"http://www.madrid.es/vgn-ext-templating/v/index.jsp?vgnextchannel=9e4c43db40317010VgnVCM100000dc0ca8c0RCRD&vgnextoid=7d1aef4d7f71c010VgnVCM1000000b205a0aRCRD";"SERRANO";"CALLE";"V";"122";"";"";"";"";"MADRID";"MADRID";"28006";"CASTELLANA";"SALAMANCA";"441911";"4476668";"40.436750328725985";"-3.6861980129207894";"915 616 084";"915 617 793";"secretaria.fundacion@flg.es";"/contenido/entidadesYorganismos/MonumentosEdificiosArtisticos"; 
2103;"Museo Mdico Farmacetico";"";"De lunes a viernes de 8 a 15 horas";"";" Metro: Guzmn el Bueno (lneas 6, 7)  Bus: 44, 45, F, C ";"";"0";"http://www.madrid.es/vgn-ext-templating/v/index.jsp?vgnextchannel=9e4c43db40317010VgnVCM100000dc0ca8c0RCRD&vgnextoid=153bef4d7f71c010VgnVCM1000000b205a0aRCRD";"REINA VICTORIA";"AVENIDA";"V";"26";"";"";"";"";"MADRID";"MADRID";"28003";"CIUDAD UNIVERSITARIA";"MONCLOA-ARAVACA";"439966";"4477857";"40.44732295324816";"-3.7092415521608646";"";"";"";"/contenido/entidadesYorganismos/Museos"; 
5349304;"Museo Nacional Centro de Arte Reina Sofa (MNCARS)";"  Edificio Sabatini:  calle Santa Isabel 52.   Edificio Nouvel  (ampliacin): ronda de Atocha, esquina a plaza del Emperador Carlos V.   Espacios completamentarios en el Parque de El Retiro:  Palacio de Velzquez y Palacio de Cristal ";"  De lunes a sbado de 10 a 21 horas y domingos de 10 a 19 horas (de 14:30 a 19 horas se pueden visitar la Coleccin 1, Edificio Sabatini planta 2,. El resto de las exposiciones temporales y la Coleccin, permanecen cerradas).  Martes cerrado (incluso festivos)  Cerrado los das 1 y 6 de enero, 1 de mayo, 15 de mayo, 9 de noviembre y 24, 25 y 31 de diciembre   El horario de la taquilla finaliza 30 minutos antes de la hora del cierre del museo.  ";"  Biblioteca y centro de documentacin  Acceso y servicios para personas con discapacidad  Audioguas  Librera y tienda  Punto de informacin (domingos de 10 a 14 horas)  Cafetera y restaurante  Cajero 4B  Servicio de informacin  Club de talleres infantiles (informacin de actividades, descuentos y promociones)  Aparcamiento para biciletas, en la entrada de la plaza Nouvel, a ambos lados del Edificio Sabatini  Aparcamientos pblicos de vehculos cercanos: estacin ferroviaria de Atocha y plaza Snchez Bustillo  ";" Metro: Atocha (lnea 1)  Bus:  6 , 8 , 10 , 14 , 19 , 24 , 26 , 27 , 32 , 34 , 36 , 37 , 41 , 45 , 47 , 54 , 55 , 57 , 59 , 60 , 78 , 85 , 86 , 102 , 116 , 118 , 119 , 141 , 148 , 247 , E3 , Circular  Renfe: C2, C3, C4, C5, C7, C8, C10 ";"";"1";"http://www.madrid.es/vgn-ext-templating/v/index.jsp?vgnextchannel=9e4c43db40317010VgnVCM100000dc0ca8c0RCRD&vgnextoid=69d8275bad5a1210VgnVCM2000000c205a0aRCRD";"SANTA ISABEL";"CALLE";"V";"52";"";"";"";"";"MADRID";"MADRID";"28012";"EMBAJADORES";"CENTRO";"441222";"4473541";"40.40853230723727";"-3.6940315586451433";"917 741 000                                                                         
";"917 741 056";"info@museoreinasofia.es";"/contenido/entidadesYorganismos/Museos"; 
2057;"Museo Nacional de Antropologa";" El Museo Nacional de Antropologa ofrece al pblico una visin global de la cultura de diferentes pueblos y  establece las semejanzas o diferencias culturales que les unen o separan para poner de manifiesto la riqueza y diversidad de las culturas existentes a lo largo del mundo, favorece la comprensin intelectual y promueve la tolerancia hacia otros pueblos y otras culturas. El Museo est instalado en el edificio de estilo clasicista construido por el Marqus de Cubas en 1875 por encargo del Doctor Gonzlez Velasco, fundador de la institucin. ";"  De martes a sbado de 9:30 a 20 horas, domingos y festivos de 10 a 15 horas.  Cerrado: todos los lunes; 1 de enero; 1 de mayo;  24, 25 y 31 de diciembre y dos festivos locales.  ";" Biblioteca (especializacin en antropologa, servicio de prstamo interbibliotecario y reprografa) - Guardarropa - Servicio de voluntarios - Visitas guiadas de grupos, previa peticin.  La biblioteca est cerrada temporalmente por obras. ";" Metro: Atocha  Bus: 6, 7,10, 14, 19, 24, 26, 27, 32, 34, 37, 45, 85, 150, C  Renfe: Atocha ";"";"1";"http://www.madrid.es/vgn-ext-templating/v/index.jsp?vgnextchannel=9e4c43db40317010VgnVCM100000dc0ca8c0RCRD&vgnextoid=456079262ef5d010VgnVCM1000000b205a0aRCRD";"ALFONSO XII";"CALLE";"V";"68";"";"";"";"";"MADRID";"MADRID";"28014";"LOS JERONIMOS";"RETIRO";"441659";"4473466";"40.40788746746481";"-3.6888747083604834";"915 306 418                                                                                                
";"914 677 098";"antropologico@mcu.es";"/contenido/entidadesYorganismos/Museos"; 
2055;"Museo Nacional de Artes Decorativas";" Inaugurado en 1912, su sede es un tpico palacete madrileo del ltimo tercio del siglo XIX. El museo posee muebles, cermicas, vidrios, joyas, tejidos, arte oriental, y hasta 30.000 objetos distintos que a lo largo de la historia han servido para embellecer las casas, palacios y los monumentos de distintas culturas.  El museo posee muestras como el Jarrn de Sevres regalo de Napolen III, la Cocina Valenciana del siglo XVIII compuesta por ms de 1.500 azulejos de Manises, la Mesa de plata del siglo XVI o la coleccin de alfombras espaolas de los siglos XV al XVII. ";"  De martes a sbados de 9:30 a 15 horas.   Jueves tarde de 17 a 20 horas.  Cerrado los jueves de julio y agosto.  Domingos y festivos de 10 a 15 horas.   Cerrado: todos los lunes del ao, y los das 1 y 6 de enero, 1 y 15 de mayo, 24, 25 y 31 de diciembre.  ";"  Exposicin de piezas espaolas y de procedencia extranjera.     Visitas guiadas a la coleccin permanente.   Los guas voluntarios del Museo Nacional de Artes Decorativas ofrecen visitas gratuitas a la coleccin permanente los domingos a las 11:30 horas para todos los visitantes y de martes a viernes a grupos (previa peticin de hora en el 915 326 499 -  Ext.  101).   Visitas guiadas individuales  los domingos a las 11:30 horas    Informacin y reservas para grupos:  915 326 499.  Ext.  101 (En caso de cancelacin de la visita, se ruega avisar telefnicamente) ";" Metro: Banco de Espaa (lnea 2) , Retiro (lnea 2)  Bus: 1, 2, 5, 9, 10, 14, 15, 16, 19, 20, 27, 28, 34, 37, 45, 51, 52, 53, 74, 146, 148, 150  Cercanas: Recoletos ";"";"0";"http://www.madrid.es/vgn-ext-templating/v/index.jsp?vgnextchannel=9e4c43db40317010VgnVCM100000dc0ca8c0RCRD&vgnextoid=287079262ef5d010VgnVCM1000000b205a0aRCRD";"MONTALBAN";"CALLE";"V";"12";"";"";"";"";"MADRID";"MADRID";"28014";"LOS JERONIMOS";"RETIRO";"441590";"4474576";"40.4178910680573";"-3.689790044810553";"915 326 499 / 915 326 845";"915 232 086";"mnad@mnad.mcu.es";"/contenido/entidadesYorganismos/MonumentosEdificiosArtisticos"; 
2083;"Museo Nacional de Ciencia y Tecnologa";" Situado en la antigua estacin de Delicias. El contenido de la coleccin se basa en instrumentos cientficos, mquinas industriales, aparatos de sonido e imagen.  Exposiciones permanentes: Tiempos precisos, de relojes y Vivir ms y mejor: nuestra meta ";" De martes a sbado de 10 a 14 y de 16 a 18 horas. Domingo y festivos de 10 a 14:30 horas.  Verano (julio y agosto): de martes a sbado de 9 a 15 horas; domingos y festivos de 10 a 14:30 horas.   Cerrado: lunes, das 1 y 6 de enero, 1 y 15 de mayo y  24, 25 y 31 de diciembre  ";"";" Metro: Delicias (lnea 3)  Bus: 8 , 19 , 45 , 47 , 59 , 85 , 86 ";"";"1";"http://www.madrid.es/vgn-ext-templating/v/index.jsp?vgnextchannel=9e4c43db40317010VgnVCM100000dc0ca8c0RCRD&vgnextoid=fbcbef4d7f71c010VgnVCM1000000b205a0aRCRD";"DELICIAS";"PASEO";"V";"61";"";"";"";"";"MADRID";"MADRID";"28045";"DELICIAS";"ARGANZUELA";"441233";"4472625";"40.400281290485566";"-3.693817192160563";"916 037 400 / 916 037 401 (exposiciones) / 916 037 405  (visitas guiadas)";"";"infomuseo@muncyt.es";"/contenido/entidadesYorganismos/Museos"; 
2056;"Museo Nacional de Ciencias Naturales";"Construido por Fernando de la Torriente en 1881 con hierro y cristal. De estructura muy similar a los pabellones con destino a exposiciones construdos en la poca. Sus jardines albergan un estanque, el monumento a Isabel la Catlica y el monumento a la Constitucin de 1978.";" De martes a viernes, domingos, festivos y lunes festivos de 10 a 17 horas. Sbados, domingos previos a festivos de 10 a 20 horas. Sbados de julio y agosto de 10 a 15 horas.   Cerrado : todos los lunes no festivos, 1 y 6 de enero, 1 de mayo y 25 de diciembre   Biblioteca : de lunes a jueves de 9 a 20 y viernes de 9 a 15 horas. Julio y agosto: de lunes a viernes de 9 a 14,30 horas    Mediateca  (cerrada por obras). ";" Biblioteca de Zoologa, Entomologa, Econologa, Evolucin, Geologa y Paleontologa (consulta en sala, informacin y referencia, reprografa, prstamo personal e interbibliotecario), Archivo, publicaciones, consulta y asesoramiento cientfico y tcnico, exposiciones permanentes y temporales, actividades culturales, talleres, cursos, Sala de proyecciones. Librera especializada. ";" Metro: Gregorio Maran (lneas 7, 10)  Bus: 7, 12, 14, 27, 40, 45, 147, 150 ";"  Exposiciones permanentes     Minerales, fsiles y evolucin humana:  fsiles, meteoritos, minerales, rocas y la evolucin humana    Mediterrneo, naturaleza y civilizacin:  la fauna ms destacada del rea mediterrnea espaola y los ecosistemas que dan forma a sus paisajes.   El Real Gabinete de Historia Natural:  piezas emblemticas del antiguo Real Gabinete de 1771 y otras de gran valor histrico.   El Jardn educativo del monte mediterrneo:  bajo este nombre estn representados ambientes botnicos con especies propias de esta regin, que tienen un bajo requerimiento hdrico y que muchas de ellas estn presentes en la Comunidad de Madrid.   El almacn de aves y mamferos:  custodia las ms importantes colecciones zoolgicas y geolgicas de Espaa con ms de 8 millones de ejemplares.   Jardn de piedras:  conjunto al aire libre de rocas y troncos fosilizados.   Esqueleto de ballena roncual : cedido por el gobierno andaluz, con ms de 20 metros y 1.500 kilos. La ballena qued varada en 2008 en la playa de Cortijo Blanco, en Marbella,     Talleres y visitas especiales para discapacitados visuales e intelectuales,   para grupos:  concertar en los telfonos 915 646 169 y 914 111 328 ext.  1165 ( de lunes a viernes de 10 a 14 horas) ";"1";"http://www.madrid.es/vgn-ext-templating/v/index.jsp?vgnextchannel=9e4c43db40317010VgnVCM100000dc0ca8c0RCRD&vgnextoid=8edbef4d7f71c010VgnVCM1000000b205a0aRCRD";"JOSE GUTIERREZ ABASCAL";"CALLE";"V";"2";"";"";"";"";"MADRID";"MADRID";"28006";"EL VISO";"CHAMARTIN";"441578";"4477079";"40.44042943656617";"-3.690161856630636";"914 111 328 (centralita)";"915 645 078";"museo@bib.csic.es";"/contenido/entidadesYorganismos/MonumentosEdificiosArtisticos"; 
2076;"Museo Naval";" Temtica: historia de la navegacin espaola  ";"De martes a domingo de 10 a 19 horas. Cerrado: lunes,  das 1 y 6 de enero, viernes santo, 1 de mayo, da 16 de julio, y das 24, 25 y 31 de diciembre";"";" Metro: Banco de Espaa (lnea 2)  Bus: 9, 10, 14, 27, 34, 37, 45 ";"";"1";"http://www.madrid.es/vgn-ext-templating/v/index.jsp?vgnextchannel=9e4c43db40317010VgnVCM100000dc0ca8c0RCRD&vgnextoid=a30cef4d7f71c010VgnVCM1000000b205a0aRCRD";"PRADO";"PASEO";"V";"5";"";"";"";"";"MADRID";"MADRID";"28014";"LOS JERONIMOS";"RETIRO";"441337";"4474537";"40.41751289873052";"-3.692768317427539";"915 238 516 (Cita previa visitas grupo)";"913 795 056";"";"/contenido/entidadesYorganismos/Museos"; 
2085;"Museo Postal y Telegrfico";" Recorrido temtico y cronolgico por la evolucin de los medios de comunicacin y colecciones filatlicas de gran valor histrico, temticas y por pases. ";"  Museo: de lunes a viernes de 9 a 14 y de 16 a 18 horas.   Biblioteca: de lunes a viernes de 9 a 14 horas.  ";"";"Bus: 161";"  Visitas guiadas:  previa peticin de hora, para grupos o coleccionistas e investigadores. Mediante la proyeccin de videos y a travs de la visita, se puede conocer la historia del correo y del telgrafo desde los orgenes hasta las nuevas tecnologas.  ";"1";"http://www.madrid.es/vgn-ext-templating/v/index.jsp?vgnextchannel=9e4c43db40317010VgnVCM100000dc0ca8c0RCRD&vgnextoid=c82cef4d7f71c010VgnVCM1000000b205a0aRCRD";"TAPIA DE CASARIEGO";"CALLE";"V";"6";"";"";"";"";"MADRID";"MADRID";"28023";"VALDEMARIN";"MONCLOA-ARAVACA";"434912";"4480162";"40.467706026917405";"-3.7690721403206724";"917 400 668 / 917 400 664 (Biblioteca)";"917 401 436";"museopostaltelegrafico@correos.com";"/contenido/entidadesYorganismos/MonumentosEdificiosArtisticos"; 
4997114;"Museo Sorolla";"";" De martes a sbado: de 9:30 a 20 horas ininterrumpido   Domingo y festivos: de 10 a 15 horas  Cerrado: todos los lunes del ao, 1 de enero, 1 de mayo, 24, 25 y 31 de diciembre, y dos festivos locales. ";"Autoguas, biblioteca y archivo ";" Metro: Iglesia (lnea 1), Rubn Daro (lnea 5), Gregorio Maran (lneas 7, 10)  Bus: 5, 7, 14, 16, 27, 40, 45, 61, 147 y 150  ";"";"0";"http://www.madrid.es/vgn-ext-templating/v/index.jsp?vgnextchannel=9e4c43db40317010VgnVCM100000dc0ca8c0RCRD&vgnextoid=6dd05e93aad9c110VgnVCM1000000b205a0aRCRD";"GENERAL MARTINEZ CAMPOS";"PASEO";"V";"37";"";"";"";"";"MADRID";"MADRID";"28010";"ALMAGRO";"CHAMBERI";"441382";"4476506";"40.43525376916864";"-3.69241981045026";"913 101 584";"913 085 925";"museo@msorolla.mcu.es";"/contenido/entidadesYorganismos/Museos"; 
2077;"Museo Taurino de la Plaza de las Ventas";" Su existencia data del da de San Isidro de 1951, creado por la extinta Diputacin Provincial de Madrid. Sirve como testimonio de los momentos estelares del arte y la historia del toreo  ";"  Temporada taurina  (de marzo a octubre): de lunes a viernes de 9:30 a 14:30 horas. Domingos, festivos y das de festejo de 10 a 13 horas   Fuera de temporada  (de noviembre a febrero): de lunes a viernes de 9:30 a 14:30 horas ";"";" Metro: Ventas (lneas 2, 5)  Bus: 12, 21, 38, 53, 106, 110, 146 ";"";"0";"http://www.madrid.es/vgn-ext-templating/v/index.jsp?vgnextchannel=9e4c43db40317010VgnVCM100000dc0ca8c0RCRD&vgnextoid=958cef4d7f71c010VgnVCM1000000b205a0aRCRD";"ALCALA";"CALLE";"V";"237";"";"";"";"";"MADRID";"MADRID";"28028";"GUINDALERA";"SALAMANCA";"443885";"4476078";"40.43157110306013";"-3.662872780933851";"917 251 857                 
";"";"";"/contenido/entidadesYorganismos/Museos"; 
2099;"Museo Thyssen Bornemisza";"   Arquitecto:  Antonio Lpez Aguado (1805 - 1806)   Adecuacin : Rafael Moneo (1989 - 1992)    Ampliacin : BOPBAA (1999 - 2004)   El Palacio donde se ubica la coleccin fue el antiguo palacio del duque de Villahermosa. Edificacin neoclsica. Posteriormente se transforma y adapta como entidad bancaria perdiento sus espacios interiores. Aos ms tarde, pas a formar parte de los edificios del Museo del Prado. Desde principios de los 90 alberga la Coleccin Thyssen. El museo ofrece un recorrido por la historia de la pintura europea desde sus inicios en el siglo XIII, hasta finales del siglo XX.  ";"";"  Accesible a personas con discapacidad (fsica y sensorial)   Folleto y sealizacin en braille para invidentes  Librera  Tienda  Cafetera  Restaurante  Guardarropa  Servicio de venta anticipada en las taquillas  Servicio de Audio Gua  ";" Metro: Banco de Espaa (lnea 2)  Bus: 1, 2,  5, 9, 10, 14, 15, 20, 27, 34, 37, 45, 51, 52, 53, 74, 146, 150  Renfe: Recoletos ";"   Horario     Coleccin permanente : de martes a domingo de 10 a 19 y sbados hasta las 21 horas (exposiciones temporales). El desalojo de las Salas de Exposicin tendr lugar cinco minutos antes del cierre  El Museo cierra los das 1 de enero, 1 de mayo y el 25 de diciembre  Apertura gratuita todos los lunes del ao, entre las 12 y las 16 horas    Horario de apertura durante el verano de 2014     Exposiciones temporales:  de 10 de junio a 14 de septiembre, las exposiciones temporales estarn abiertas de 10 a 22 horas (de martes a sbado) y de 10 a 19 horas (lunes y domingos). ltimo acceso una hora antes del cierre   Cafetera - restaurante:  permanecer abierta de 10 a 22 horas (de martes a sbado) y de 10 a 19 horas (lunes y domingos)   Terrazas del Thyssen:  de 10 a 1 de la madrugada (de martes a sbado) y de 10 a 19 horas (lunes y domingos)   Restaurante El Mirador del Museo:  nicamente abierto para cenas (de martes a sbado), desde las 20:20 horas hasta la 1 de la madrugada  ";"1";"http://www.madrid.es/vgn-ext-templating/v/index.jsp?vgnextchannel=9e4c43db40317010VgnVCM100000dc0ca8c0RCRD&vgnextoid=0b8079262ef5d010VgnVCM1000000b205a0aRCRD";"PRADO";"PASEO";"V";"8";"";"";"";"";"MADRID";"MADRID";"28014";"CORTES";"CENTRO";"441168";"4474371";"40.41600553697803";"-3.694744831131079";"902 760 511 (Informacin general)                                                                                                                         
";"914 202 780";"inform@museothyssen.org";"/contenido/entidadesYorganismos/MonumentosEdificiosArtisticos"; 
2101;"Museo Tiflolgico";"Edificio con una superficie de 1.500  m2  dividido en tres zonas con maquetas de monumentos nacionales e internacionales realizadas por ciegos e instrumentos utilizados por los invidentes desde hace 200 aos. Es un espacio concebido para que sus visitantes puedan ver y tocar las piezas expuestas.";" Martes a viernes de 10 a 14 horas y de 17 a 20 horas. Sbados de 10 a 14 horas. Lunes, domingos y festivos cerrado.  Las visitas de grupos se realizan previa reserva, de 8 a 15 horas, en el telfono de informacin:+34 915 894 219 ";"Apropiado para nios a partir de 8 aos";" Metro: Estrecho  Bus: 3, 42, 64, 66, 124, 127 ";"";"1";"http://www.madrid.es/vgn-ext-templating/v/index.jsp?vgnextchannel=9e4c43db40317010VgnVCM100000dc0ca8c0RCRD&vgnextoid=baacef4d7f71c010VgnVCM1000000b205a0aRCRD";"LA CORUA";"CALLE";"V";"18";"";"";"";"";"MADRID";"MADRID";"28020";"CUATRO CAMINOS";"TETUAN";"440740";"4478725";"40.45519790204094";"-3.7001960485997545";"915 894 290";"915 894 225";"museo@once.es";"/contenido/entidadesYorganismos/Museos"; 
2063;"Palacio de Liria";" Construdo por Ventura Rodrguez entre 1762 y 1780 para el tercer Duque de Berwick y de Liria. De estilo barroco clsico. Destaca su fachada con columnas jnicas y pilastras que descansan sobre un basamento almohadillado.  ";" Viernes: visita guiada a las 10 horas, 11 horas y 12 horas.  Visitas: previa peticin de cita por escrito o por fax ";"";" Metro: Ventura Rodrguez (lnea 3)  Bus: 1, 2, 44, 74, 133, C ";"";"0";"http://www.madrid.es/vgn-ext-templating/v/index.jsp?vgnextchannel=9e4c43db40317010VgnVCM100000dc0ca8c0RCRD&vgnextoid=22bdef4d7f71c010VgnVCM1000000b205a0aRCRD";"PRINCESA";"CALLE";"V";"20";"";"";"";"";"MADRID";"MADRID";"28008";"UNIVERSIDAD";"CENTRO";"439663";"4475582";"40.42680681645222";"-3.7125979731032404";"91 547 53 02";"91 541 03 77";"";"/contenido/entidadesYorganismos/MonumentosEdificiosArtisticos"; 
2062;"Palacio Real";" Construido sobre el solar del antiguo Alczar tras un incendio en 1734. Proyectado por Juvara en 1735 y construido por Sachet de 1738 a 1764 bajo las influencias del clasicismo barroco. A partir de 1770, Sabatini aadi el ala sudeste y realiz la gran escalera. Es de destacar el gran patio que articula el edificio y la fachada principal que aloja el balcn y Escudo Real.  Dentro se encuentra el Museo Real Oficina de Farmacia (cerrado por obras de remodelacin). ";"  De octubre a marzo: de 10 a 18 horas.  De abril a septiembre: de 10 a 20 horas.  Cierre taquillas una hora antes.  Cerrado: 1 y 6 (acto oficial) de enero; 1 de mayo; 25 de diciembre de 2014.   Abierto: 17 y 18 de abril; 2 y 15 de mayo; 19 de junio; 15 de agosto; 1 y 10 de noviembre; 6, 8, 24 y 31 de diciembre de 2014: taquillas cerradas a las 14 y monumento a la 15 horas.   ";" Librera. Exposicin permanente Cuarteto Real (coleccin de cinco stradivarius). Visita incluida en el precio de la entrada. Ms informacin: telfono 91 542 00 59. Accesible a personas con minusvala (fsica).   Iluminacin del Palacio : todos los das, del atardecer hasta las 2 de la madrugada   Cambio de guardia : primer mircoles de cada mes (si la climatologa lo permite) a las 12 horas, en la Plaza de la Armera. Adems se producir un cambio de guardia reducido el resto de mircoles del mes a las 12 horas, en la Puerta del Prncipe (Plaza de Oriente). Sin relevo: en julio, agosto y septiembre. ";" Metro: pera (lneas 2, 5 y Ramal Opera Norte)  Bus: 3, 25, 39, 148 ";"";"1";"http://www.madrid.es/vgn-ext-templating/v/index.jsp?vgnextchannel=9e4c43db40317010VgnVCM100000dc0ca8c0RCRD&vgnextoid=47ddef4d7f71c010VgnVCM1000000b205a0aRCRD";"BAILEN";"CALLE";"V";"0";"";"";"";"";"MADRID";"MADRID";"28013";"PALACIO";"CENTRO";"439649";"4474910";"40.42075212551193";"-3.712699107286406";"914 548 800 (Informacin general, actos e incidencias previstas)                                                              
914 548 803 (Concierto de colegios, reserva grupos de lunes a jueves de 9 a 18 y viernes de 9 a 16 horas)   
";"915 426 947";"info@patrimonionacional.es";"/contenido/entidadesYorganismos/MonumentosEdificiosArtisticos"; 
2079;"Panten de Hombres Ilustres";" La construccin de este edificio responde a dos de las constantes de fines de siglo: la arquitectura historicista y la escultura funeraria. En l reposan trece personajes ilustres de la historia poltica y militar espaola.   Atencin telefnica:    De lunes a sbado: de 9:30 a 17 horas  Domingos y festivos: de 9 a 14 horas  ";"  De martes a sbado de 10 a 14 y de 16 a 18,30 horas.  Domingos y festivos de 10 a 15 horas. Tardes cerrado.  Cerrado: 1 y 6 de enero; 1 de mayo; 25 de diciembre de 2014.   Abierto: 15 de mayo; 10 de noviembre y 8, 24 y 31 de diciembre de 2014: los das 24 y 31 de diciembre cerradas taquillas a las 14:30 y monumento a las 15 horas.  Abierto horario domingo: 17 y 18 de abril; 2 de mayo; 19 de junio; 15 de agosto; 1 de noviembre y 6 de diciembre de 2014.  Cierre del acceso al monumento media hora antes.  ";"";" Metro: Atocha  Bus: 10, 14, 24, 32, 37, 54, 57, 141  Renfe: Atocha ";" Entrada libre ";"1";"http://www.madrid.es/vgn-ext-templating/v/index.jsp?vgnextchannel=9e4c43db40317010VgnVCM100000dc0ca8c0RCRD&vgnextoid=361cef4d7f71c010VgnVCM1000000b205a0aRCRD";"JULIAN GAYARRE";"CALLE";"V";"3";"";"";"";"";"MADRID";"MADRID";"28014";"PACIFICO";"RETIRO";"442121";"4473278";"40.40622617519116";"-3.683413041846525";"914 548 800 ";"915 426 947";"";"/contenido/entidadesYorganismos/MonumentosEdificiosArtisticos"; 
3362;"Parroquia Santa Cruz";"";"";"";" Metro: Sol , Tirso de Molina  Bus: 6 , 17 , 18 , 23 , 26 , 31 , 32 , 35 , 50 , 65 ";"";"0";"http://www.madrid.es/vgn-ext-templating/v/index.jsp?vgnextchannel=9e4c43db40317010VgnVCM100000dc0ca8c0RCRD&vgnextoid=40e0b069a541f010VgnVCM1000000b205a0aRCRD";"ATOCHA";"CALLE";"V";"6";"";"";"";"";"MADRID";"MADRID";"28012";"SOL";"CENTRO";"440278";"4474221";"40.414599766147546";"-3.705220430502387";"913 691 239";"";"";"/contenido/entidadesYorganismos/MonumentosEdificiosArtisticos"; 
2213;"Planetario de Madrid";" Inaugurado el 29 de septiembre de 1986.  Los programas que se ofrecen en el Planetario se renuevan peridicamente con una duracin aproximada de 45 minutos. Existen dos programaciones diferentes, una durante el verano y poca de vacaciones escolares y otra durante el curso escolar. ";"";"  2 Salas de exposiciones  Sala de astrnomos  Sala de vdeo  Sala de proyeccin  Sala de retroproyeccin  Dotacin de ordenadores personales con programas de divulgacin y consultas astronmicas  Tienda especializada  Venta de catlogos de exposiciones del Planetario  ";" Metro: Mndez lvaro (lnea 6),   Bus: 148, 156 ";"  Horario de e  xposiciones    Del 18 de enero al 10 de abril de 2014   De martes a viernes (das lectivos) de 17 a 19:45 horas.  Sbados y domingos de 11 a 13:45 y de 17 a 20:45 horas.    Semana Santa de 2014   11, 15 y 16 de abril de 9:30 a 13:45 y de 17 a 20:45 hora.  12, 13, 17, 18, 19 y 20 de abril de 11 a 13:45 y de 17 a 19:45 horas.    Del 22 de abril al 20 de junio de 2014   De martes a viernes (das lectivos): de 17 a 19:45 horas.  Sbados, domingos y festivos de 11 a 13:45 y de 17 a 20:45 horas.    Del 21 de junio al 21 de septiembre   De martes a viernes: 9:30 a 13:45 y de 17 a 19:45 horas  Sbados, domingos y festivos de 11 a 13:45 y de 17 a 20:45 horas.      Das de cierre    Todos los lunes del ao.  Del 6 al 17 de enero por revisin tcnica anual.  ";"0";"http://www.madrid.es/vgn-ext-templating/v/index.jsp?vgnextchannel=9e4c43db40317010VgnVCM100000dc0ca8c0RCRD&vgnextoid=c9c5b069a541f010VgnVCM1000000b205a0aRCRD";"PLANETARIO";"AVENIDA";"V";"16";"";"";"";"";"MADRID";"MADRID";"28045";"LEGAZPI";"ARGANZUELA";"441977";"4471730";"40.39227092120195";"-3.684968648157021";"914 673 461 (Reserva Grupos)                                                                                                     
914 673 898 (Contestador automtico de informacin)";"";"buzon@planetmad.es";"/contenido/entidadesYorganismos/Planetarios"; 
3359;"Real Baslica San Francisco el Grande";" Conjunto conventual que sustituy al monasterio franciscano medieval, construido por Francisco de las Cabezas entre 1761 y 1768, que fue relevado por Antonio Polo y que concluye Francisco Sabatini en 1784 donde se exponen colecciones de pinturas de los siglos XVII al XIX. ";"  Museo:  de martes a viernes de 10:30 a 12:30 y de 16 a 18 horas. Sbados de 10:30 a 12:30 y de 16 a 18 horas (si no se ofician actos religiosos). Julio y agosto: de martes a domingo de 10:30 a 12:30 y de 17 a 19 horas. ";"";" Metro: La Latina (lnea 5) , Puerta de Toledo (lnea 5)  Bus:  3, 17, 18, 23, 31, 35, 36, 41, 50, 60, 65, 148, 749, C1, C2 ";"";"0";"http://www.madrid.es/vgn-ext-templating/v/index.jsp?vgnextchannel=9e4c43db40317010VgnVCM100000dc0ca8c0RCRD&vgnextoid=ef8d0713fb71c010VgnVCM1000000b205a0aRCRD";"SAN BUENAVENTURA";"CALLE";"V";"1";"";"";"";"";"MADRID";"MADRID";"28005";"PALACIO";"CENTRO";"439487";"4473811";"40.41084005024222";"-3.714503845728281";"913 653 800";"";"";"/contenido/entidadesYorganismos/MonumentosEdificiosArtisticos"; 
2087;"Real Fbrica de Tapices";"";" De lunes a viernes de 10 a 14 horas.   Cerrado: sbados, domingos, Semana Santa y agosto. ";"Salones para eventos";" Metro: Menndez Pelayo (lnea 1)  Bus: 10, 14, 26, 32, C ";"";"0";"http://www.madrid.es/vgn-ext-templating/v/index.jsp?vgnextchannel=9e4c43db40317010VgnVCM100000dc0ca8c0RCRD&vgnextoid=53cbff632081c010VgnVCM1000000b205a0aRCRD";"FUENTERRABIA";"CALLE";"V";"2";"";"";"";"";"MADRID";"MADRID";"28014";"PACIFICO";"RETIRO";"442197";"4473262";"40.406087329011655";"-3.682515969574079";"914 340 550";"915 513 409";"info@realfabricadetapices.com";"/contenido/entidadesYorganismos/MonumentosEdificiosArtisticos"; 
3349;"Real Monasterio de la Encarnacin";" Edificio construdo por Juan Gmez de Mora de 1611 a 1616 como monasterio anejo al Alczar Real, modelo de lo que se ha dado en llamar barroco madrileo. Cuenta con la reliquia de San Pantalen. ";"  De martes a sbado: de 10 a 14 horas y de 16 a 18:30 horas  Domingos y festivos: de 10 a 15 horas y tardes cerrado  Cierre taquillas, 45 minutos antes  Cerrado: 1 y 6 de enero; Semana Santa (de 16 al 19 de abril, inclusive); 1 de mayo; 27 de julio; 10 de noviembre; 24, 25 y 31 de diciembre de 2014  Abierto: 15 de mayo y 8 de diciembre de 2014  Abierto horario domingo: 2 de mayo; 19 de junio; 15 de agosto; 1 de noviembre y 6 de diciembre de 2014    Atencin telefnica    De lunes a sbados: de 9:30 a 17 horas  Domingos y festivos: de 9 a 14 horas  ";"  Biblioteca  Publicaciones  Tienda  Librera  Visitas guiadas  ";" Metro:  pera (lneas 2, 5 y Ramal pera Prncipe Po), Plaza de Espaa (lnea 3)  Bus:  1, 2, 3, 25, 39, 44, 46, 74, 75, 133 , 138, 147, 148, 202 , 749, C1, C2 ";"";"1";"http://www.madrid.es/vgn-ext-templating/v/index.jsp?vgnextchannel=9e4c43db40317010VgnVCM100000dc0ca8c0RCRD&vgnextoid=72ad0713fb71c010VgnVCM1000000b205a0aRCRD";"ENCARNACION";"PLAZA";"V";"1";"";"";"";"";"MADRID";"MADRID";"28013";"PALACIO";"CENTRO";"439744";"4474790";"40.41967800877382";"-3.711567962866152";"914 548 800 ";"915 426 947";"";"/contenido/entidadesYorganismos/MonumentosEdificiosArtisticos"; 
4707297;"Real Monasterio de Santa Isabel";" El Real Monasterio de Santa Isabel est situado en Madrid, dentro de la ciudad histrica, en una gran manzana, prxima a Atocha.  Santa Isabel agrupa dos fundaciones, un colegio de nias, establecido por Felipe II, y un convento de clausura de monjas agustinas recoletas, fundado por la esposa de Felipe III, doa Margarita de Austria.   La arquitectura de la iglesia se debe a Gmez de Mora, de mediados del siglo XVIII. En la clausura se conservan numerosas obras pictricas de los siglos XVII y XVIII. ";" El acceso al templo slo es posible en horario de culto ";"";"";"";"0";"http://www.madrid.es/vgn-ext-templating/v/index.jsp?vgnextchannel=9e4c43db40317010VgnVCM100000dc0ca8c0RCRD&vgnextoid=545b544a249c6110VgnVCM1000000b205a0aRCRD";"SANTA ISABEL";"CALLE";"V";"48";"";"";"";"";"MADRID";"MADRID";"28012";"EMBAJADORES";"CENTRO";"440765";"4473944";"40.41213027498252";"-3.6994547941964946";"";"";"";"/contenido/entidadesYorganismos/MonumentosEdificiosArtisticos"; 
2061;"Real Sitio de El Pardo";" Recinto en el que se conserva el Palacio, construido sobre el castillo del siglo XV, la Casita del Prncipe, del siglo XVIII y la Quinta del Duque de Arco (Palacete que fue Casa de Labor y sus tierras). Desde 1983 ha sido adecuado para residencia de Jefes de Estado extranjeros en visita oficial. ";"  De octubre a marzo: todos los das de 10 a 18 horas  De abril a septiembre: todos los das de 10 a 20 horas  Cerrado: 1, 6 de enero; 1 de mayo; 24, 25 y 31 de diciembre de 2014.   Abierto: 17 y 18 de abril; 2 y 15 de mayo; 19 de junio; 15 de agosto; 1 y 10 de noviembre; 6 y 8 de diciembre de 2014.   ";"";"Bus: 601 (Madrid - Colonia Mingorrubio)";"El palacio dispone de helipuerto civil";"1";"http://www.madrid.es/vgn-ext-templating/v/index.jsp?vgnextchannel=9e4c43db40317010VgnVCM100000dc0ca8c0RCRD&vgnextoid=9f9def4d7f71c010VgnVCM1000000b205a0aRCRD";"MANUEL ALONSO";"CALLE";"V";"S/N";"";"";"";"";"MADRID";"MADRID";"28048";"EL PARDO";"FUENCARRAL-EL PARDO";"434323";"4486052";"40.52071790499227";"-3.776630886241239";"913 761 500 (Informacin y concierto de visitas, de lunes a viernes de 10:30 a 17 horas)";"913 761 287 / 913 760 452";"";"/contenido/entidadesYorganismos/MonumentosEdificiosArtisticos"; 
20605;"Templo de Debod";" Templo egipcio dedicado a Amn de Debod y a Isis, construido entre 185  a. de C.  y el siglo  I  de la Era. Fue donado por Egipto a Espaa en 1968, en agradecimiento por la ayuda en el salvamento de los templos de Abu Simbel. ";"  De 1 de octubre a 31 de marzo   De martes a viernes de 9:45 a 13:45 y de 16:15 a 18:15 horas  Sbados, domingos y festivos de 9:30 a 20 hora    De 1 de abril a 30 de septiembre   De martes a viernes de 10 a 14 y de 18 a 20 horas  Sbados, domingos y festivos de 9:30 a 20 horas.     El templo permanece cerrado los lunes y los festivos 1 de enero, 1 de mayo y 25 de diciembre.  ltimo pase de visita 15 minutos antes del cierre.  Este horario y la apertura de salas pueden sufrir modificaciones, por favor, confrmelo en el telfono de informacin del museo.  ";"  No cuenta con accesos adaptados para minusvlidos   Exposicin permanente : Debod un templo ptolemaico  Actividades didcticas: talleres para grupos escolares, talleres de profesores, visitas guiadas, talleres para familias.  Se pueden realizar fotografas o grabaciones de vdeo libremente en el exterior o en el interior del templo, siempre y cuando no se utilicen flash o trpode y su fin no sea comercial.  ";"  Metro:  Plaza de Espaa (lneas 3 y 10) y Ventura Rodrguez (lnea 3)   Autobs    Lnea 74 (paradas en la calle Ferraz, frente al Templo, y en la calle Pintor Rosales)  Lneas 25, 39, 46, 75, 138 y C1 (parada en Cuesta de San Vicente-Cadarso)  Lneas 3, 44, 133, 148 y C2 (parada en Plaza de Espaa)  Lneas 1, 2, 74 (parada en Princesa-Ventura Rodrguez)    Renfe:  Prncipe Po   Bus turstico:  Ruta 1. PARADA 10 - Templo de Debod   Otras formas de acceso:    Aparcamiento de bicicletas: Calle Ferraz, junto al acceso principal a los jardines del Templo.  Aparcamiento de coches: dentro del rea de Estacionamiento Regulado de la ciudad de Madrid.  El aparcamiento pblico ms cercano est situado en Plaza de Espaa.  ";"";"0";"http://www.madrid.es/vgn-ext-templating/v/index.jsp?vgnextchannel=9e4c43db40317010VgnVCM100000dc0ca8c0RCRD&vgnextoid=13b432df1d51c010VgnVCM2000000c205a0aRCRD";"FERRAZ";"CALLE";"V";"1";"";"";"";"";"MADRID";"MADRID";"28008";"CASA DE CAMPO";"MONCLOA-ARAVACA";"439327";"4475301";"40.42425096551599";"-3.716531855540272";"913 667 415 (Museo de San Isidro / Templo de Debod))";"";"templodebod@madrid.es";"/contenido/entidadesYorganismos/MonumentosEdificiosArtisticos"; 
7071384;"Yacimiento paleontolgico. Estacin de Metro Carpetana";"";" Visitas todos los das durante la apertura de la estacin, de 6 a 1:30 horas ";"";"";"  Yacimiento paleontolgico en la estacin de Carpetana    Durante las obras de remodelacin de la estacin de Carpetana se descubrieron restos paleontolgicos con valiosos hallazgos del mioceno lo que ha hecho posible una reconstruccin de los paleoambientes en dos yacimientos verticales.   El primero de los espacios, cuenta con un panel en vinilo con imgenes que representan el paleoambiente existente hace ms de 15 millones de aos con restos mayoritariamente correspondientes a mastodontes de la especie Gonphotherium aungustidens. Adems, en esta misma zona expositiva, se ha incluido una reconstruccin de un ciervo denominado Heteroprox con los ambientes y especies vegetales existentes entonces en Carpetana, ya que se han podido conocer gracias a los fsiles de polen y animales recuperados en la excavacin.   El segundo espacio recrea el paleoambiente de hace aproximadamente 14 millones de aos, y se encuentran representados algunas faunas halladas en las excavaciones como el oso - perro, el oso - lobo, un felino situado en la parte superior de un rbol, una tortuga gigante, rinocerontes y un jabal.  ";"1";"http://www.madrid.es/vgn-ext-templating/v/index.jsp?vgnextchannel=9e4c43db40317010VgnVCM100000dc0ca8c0RCRD&vgnextoid=05fbb57fd3c70410VgnVCM1000000b205a0aRCRD";"VIA CARPETANA";"CALLE";"V";"328";"";"";"";"";"MADRID";"MADRID";"28047";"ALUCHE";"LATINA";"437061";"4471685";"40.39150793405899";"-3.7428839286586184";"902 444 403 (Informacin)";"";"";"/contenido/entidadesYorganismos/Museos"; 

